Name,Organization,Organization Email,Address,City,State,Zip,Phone Number,Field5_Text,Field6_Text,Field7_Text,Field8,Agency Type,Website,Topics of Interest,Program Project Type
San Francisco Plumbing Company,San Francisco Plumbing Company,info@redcircle.biz,200 Valley Dr,Brisbane,CA,94005,(415) 664-2345,Building Contractors-Commercial & Industrial,Plumbers,Sewer Cleaners & Repairers,BBB Rating: A+,,,,
Burlingame Plastering &Stucco inc,Burlingame Plastering &Stucco inc,info@redcircle.biz,15 Stanley Rd,Burlingame,CA,94010,(650) 280-4079,Building Contractors-Commercial & Industrial,Home Repair & Maintenance,Stucco & Exterior Coating Contractors,BBB Rating: A+,,,,
Shaughnessy Roofing Inc.,Shaughnessy Roofing Inc.,info@redcircle.biz,1280 Hillside Blvd,Daly City,CA,94014,(650) 488-8443,Building Contractors-Commercial & Industrial,Building Contractors,Cleaning Contractors,BBB Rating: A+,,,,
Fellman Michael Siding & Roofing,Fellman Michael Siding & Roofing,info@redcircle.biz,106 Bismark St,Daly City,CA,94014,(650) 755-1600,Building Contractors-Commercial & Industrial,Altering & Remodeling Contractors,Roofing Equipment & Supplies,BBB Rating: A+,,,,
Hoi's Construction,Hoi's Construction,info@redcircle.biz,2950 Geneva Ave,Daly City,CA,94014,(415) 333-7289,Building Contractors-Commercial & Industrial,General Contractors,Home Builders,,,,,
Rossi William F Painting & Waterproofing,Rossi William F Painting & Waterproofing,info@redcircle.biz,110 Glenn Way,San Carlos,CA,94070,(650) 595-5225,Building Contractors-Commercial & Industrial,Building Contractors,Acoustical Contractors,BBB Rating: A+,,,,
Pass Janitorial & Building Services,Pass Janitorial & Building Services,info@redcircle.biz,961 Airport Blvd,South San Francisco,CA,94080,(650) 741-1487,Building Contractors-Commercial & Industrial,"Floor Waxing, Polishing & Cleaning",Construction Site-Clean-Up,,,,,
In & Out Plumbing & Construction,In & Out Plumbing & Construction,info@redcircle.biz,184 Harbor Way,South San Francisco,CA,94080,(650) 351-7750,Building Contractors-Commercial & Industrial,Sewer Contractors,Water Damage Emergency Service,,,,,
Hargens Inc.,Hargens Inc.,info@redcircle.biz,205 Utah Ave,South San Francisco,CA,94080,(650) 351-4338,Building Contractors-Commercial & Industrial,Building Contractors,Air Conditioning Contractors & Systems,BBB Rating: A+,,,,
Kevin Webb Construction,Kevin Webb Construction,info@redcircle.biz,474 Linden St,San Francisco,CA,94102,(415) 558-9195,Building Contractors-Commercial & Industrial,Home Builders,General Contractors,,,,,
"Saarman Construction, Ltd.","Saarman Construction, Ltd.",info@redcircle.biz,683 Mcallister St,San Francisco,CA,94102,(415) 749-2700,Building Contractors-Commercial & Industrial,General Contractors,Home Builders,BBB Rating: A+,,,,
Casement Construction,Casement Construction,info@redcircle.biz,580 Hayes St,San Francisco,CA,94102,(415) 872-9778,Building Contractors-Commercial & Industrial,Home Builders,General Contractors,,,,,
Plant Construction Company,Plant Construction Company,info@redcircle.biz,1390 Market St,San Francisco,CA,94102,(415) 872-9362,Building Contractors-Commercial & Industrial,Home Builders,,,,,,
Oak Leaf Construction Inc,Oak Leaf Construction Inc,info@redcircle.biz,428 Van Ness Ave,San Francisco,CA,94102,(415) 871-3197,Building Contractors-Commercial & Industrial,Home Builders,General Contractors,,,,,
Avalonbay Construction,Avalonbay Construction,info@redcircle.biz,307 Octavia St,San Francisco,CA,94102,(415) 678-5120,Building Contractors-Commercial & Industrial,General Contractors,Building Construction Consultants,,,,,
Design Line Construction INC,Design Line Construction INC,info@redcircle.biz,442 Grove St,San Francisco,CA,94102,(415) 647-1373,Building Contractors-Commercial & Industrial,Building Construction Consultants,Building Contractors,,,,,
Lwrna Inc,Lwrna Inc,info@redcircle.biz,459 Fulton St,San Francisco,CA,94102,(415) 863-2004,Building Contractors-Commercial & Industrial,Building Contractors,General Contractors,,,,,
Construction Management,Construction Management,info@redcircle.biz,525 Golden Gate Ave,San Francisco,CA,94102,(415) 554-0702,Building Contractors-Commercial & Industrial,Construction Management,Home Builders,,,,,
Fullpower Construction,Fullpower Construction,info@redcircle.biz,555 Fulton St,San Francisco,CA,94102,(415) 563-8703,Building Contractors-Commercial & Industrial,Home Builders,General Contractors,,,,,
O'Connor Construction Mgmt,O'Connor Construction Mgmt,info@redcircle.biz,450 Golden Gate Ave,San Francisco,CA,94102,(415) 525-3720,Building Contractors-Commercial & Industrial,General Contractors,Real Estate Developers,,,,,
Fine Line Construction,Fine Line Construction,info@redcircle.biz,430 Turk St,San Francisco,CA,94102,(415) 400-5265,Building Contractors-Commercial & Industrial,General Contractors,Home Builders,,,,,
D and H Construction,D and H Construction,info@redcircle.biz,350 Ellis St,San Francisco,CA,94102,(415) 896-4229,Building Contractors-Commercial & Industrial,Home Builders,General Contractors,,,,,
Residential Building,Residential Building,info@redcircle.biz,450 Geary St,San Francisco,CA,94102,(415) 474-8138,Building Contractors-Commercial & Industrial,Building Construction Consultants,Building Contractors,,,,,
J E Brown Co Mechanical Contractors Inc.,J E Brown Co Mechanical Contractors Inc.,info@redcircle.biz,78 Shotwell St,San Francisco,CA,94103,(415) 626-4044,Building Contractors-Commercial & Industrial,Plumbers,Heating Equipment & Systems,BBB Rating: A+,,,,
Jimmyjane,Jimmyjane,info@redcircle.biz,702 15th St,San Francisco,CA,94103,(415) 864-3474,Building Contractors-Commercial & Industrial,Designers-Industrial & Commercial,Architects,,,,,
San Francisco Garage Co,San Francisco Garage Co,info@redcircle.biz,50 Otis St,San Francisco,CA,94103,(415) 826-0606,Building Contractors-Commercial & Industrial,General Contractors,Building Contractors,,,,,
Fine Line Construction,Fine Line Construction,info@redcircle.biz,42 Dore St,San Francisco,CA,94103,(415) 512-7401,Building Contractors-Commercial & Industrial,General Contractors,Home Builders,,,,,
NCR Construction,NCR Construction,info@redcircle.biz,1091 Mission St,San Francisco,CA,94103,(415) 814-2923,Building Contractors-Commercial & Industrial,Home Builders,General Contractors,,,,,
Trico Constuction,Trico Constuction,info@redcircle.biz,981 Howard St,San Francisco,CA,94103,(415) 543-2100,Building Contractors-Commercial & Industrial,General Contractors,Building Contractors,BBB Rating: A+,,,,
Cook Construction,Cook Construction,info@redcircle.biz,550 15th St,San Francisco,CA,94103,(415) 674-8264,Building Contractors-Commercial & Industrial,General Contractors,Home Builders,,,,,
Whipsaw,Whipsaw,info@redcircle.biz,81 Lafayette St,San Francisco,CA,94103,(415) 255-9044,Building Contractors-Commercial & Industrial,General Contractors,Architects,,,,,
Desilva Gates Construction,Desilva Gates Construction,info@redcircle.biz,80 9th St,San Francisco,CA,94103,(415) 660-7588,Building Contractors-Commercial & Industrial,General Contractors,Home Builders,,,,,
Construction Center,Construction Center,info@redcircle.biz,205 13th St,San Francisco,CA,94103,(415) 863-3888,Building Contractors-Commercial & Industrial,Construction Management,Building Construction Consultants,,,,,
Hill Painting Golden,Hill Painting Golden,info@redcircle.biz,205 13th St,San Francisco,CA,94103,(415) 241-0667,Building Contractors-Commercial & Industrial,Painting Contractors,Waterproofing Contractors,BBB Rating: A+,,,,
Goffo Construction Inc,Goffo Construction Inc,info@redcircle.biz,1585 Folsom St,San Francisco,CA,94103,(415) 654-5455,Building Contractors-Commercial & Industrial,General Contractors,Real Estate Developers,,,,,
Ryan Associates,Ryan Associates,info@redcircle.biz,333 12th St,San Francisco,CA,94103,(415) 861-3085,Building Contractors-Commercial & Industrial,General Contractors,Home Builders,,,,,
Castle Constructors,Castle Constructors,info@redcircle.biz,45 Norfolk St,San Francisco,CA,94103,(415) 864-6815,Building Contractors-Commercial & Industrial,General Contractors,Home Builders,,,,,
Customer Construction,Customer Construction,info@redcircle.biz,22 Guerrero St,San Francisco,CA,94103,(415) 553-8734,Building Contractors-Commercial & Industrial,Construction Consultants,Home Builders,,,,,
Matarozzi Pelsinger Builders Inc,Matarozzi Pelsinger Builders Inc,info@redcircle.biz,355 11th St Ste 200,San Francisco,CA,94103,(415) 285-6930,Building Contractors-Commercial & Industrial,General Contractors,Real Estate Developers,BBB Rating: A+,,,,
Tcb Builders Inc,Tcb Builders Inc,info@redcircle.biz,130 Dore St,San Francisco,CA,94103,(415) 550-5900,Building Contractors-Commercial & Industrial,Building Construction Consultants,Architects,,,,,
Artisan Builders Corp,Artisan Builders Corp,info@redcircle.biz,771 Clementina St,San Francisco,CA,94103,(415) 863-2232,Building Contractors-Commercial & Industrial,Building Contractors,Altering & Remodeling Contractors,,,,,
Cirrus Construction Management,Cirrus Construction Management,info@redcircle.biz,365 12th St,San Francisco,CA,94103,(415) 913-7693,Building Contractors-Commercial & Industrial,Construction Management,,,,,,
Berkel & Co. Contractors Inc.,Berkel & Co. Contractors Inc.,info@redcircle.biz,81 Langton St,San Francisco,CA,94103,(415) 553-8182,Building Contractors-Commercial & Industrial,General Contractors,Foundation Contractors,,,,,
MV Construction,MV Construction,info@redcircle.biz,467 Valencia St,San Francisco,CA,94103,(415) 863-0882,Building Contractors-Commercial & Industrial,Electricians,General Contractors,,,,,
Howard S Wright Constructors,Howard S Wright Constructors,info@redcircle.biz,1019 Market St,San Francisco,CA,94103,(415) 553-7704,Building Contractors-Commercial & Industrial,General Contractors,Construction Management,,,,,
Devcon Construction,Devcon Construction,info@redcircle.biz,1550 Bryant St Ste 410,San Francisco,CA,94103,(415) 874-9316,Building Contractors-Commercial & Industrial,General Contractors,Home Builders,,,,,
Occidental Express,Occidental Express,info@redcircle.biz,1019 Howard St,San Francisco,CA,94103,(415) 621-7533,Building Contractors-Commercial & Industrial,General Contractors,Professional Engineers,BBB Rating: A+,,,,
Y Studios,Y Studios,info@redcircle.biz,290 Division St,San Francisco,CA,94103,(415) 863-3623,Building Contractors-Commercial & Industrial,General Contractors,Architects,,,,,
Saarman Construction,Saarman Construction,info@redcircle.biz,21 Columbia Sq,San Francisco,CA,94103,(415) 934-0596,Building Contractors-Commercial & Industrial,Home Builders,Construction Management,,,,,
Strong Hold Construction,Strong Hold Construction,info@redcircle.biz,2525 16th St,San Francisco,CA,94103,(415) 624-3987,Building Contractors-Commercial & Industrial,Home Builders,General Contractors,,,,,
Martin Building Co,Martin Building Co,info@redcircle.biz,14 Mint Plz Ste 500,San Francisco,CA,94103,(415) 442-4800,Building Contractors-Commercial & Industrial,General Contractors,Building Contractors,,,,,
Johnstone & Mcauliffe Construction,Johnstone & Mcauliffe Construction,info@redcircle.biz,431 Tehama St,San Francisco,CA,94103,(415) 543-0104,Building Contractors-Commercial & Industrial,Construction Consultants,Construction Management,,,,,
Sprung Instant Structures,Sprung Instant Structures,info@redcircle.biz,550 15th St Ste 25,San Francisco,CA,94103,(415) 934-9370,Building Contractors-Commercial & Industrial,"Buildings-Pre-Cut, Prefabricated & Modular",Building Contractors,,,,,
Athena Electrical Construction,Athena Electrical Construction,info@redcircle.biz,2 Henry Adams St,San Francisco,CA,94103,(415) 678-5991,Building Contractors-Commercial & Industrial,Building Contractors,General Contractors,BBB Rating: A+,,,,
Morso Construction,Morso Construction,info@redcircle.biz,582 6th St,San Francisco,CA,94103,(415) 777-1840,Building Contractors-Commercial & Industrial,Altering & Remodeling Contractors,Home Builders,,,,,
Gelling & Judd INC,Gelling & Judd INC,info@redcircle.biz,300 Kansas St Ste 106,San Francisco,CA,94103,(415) 863-2004,Building Contractors-Commercial & Industrial,Altering & Remodeling Contractors,Building Construction Consultants,,,,,
Rossi Builders Inc,Rossi Builders Inc,info@redcircle.biz,5 3rd St Ste 822,San Francisco,CA,94103,(415) 982-6292,Building Contractors-Commercial & Industrial,General Contractors,Building Contractors,BBB Rating: A+,,,,
Cahill Construction,Cahill Construction,info@redcircle.biz,425 California St Ste 2200,San Francisco,CA,94104,(415) 986-0600,Building Contractors-Commercial & Industrial,General Contractors,Home Builders,BBB Rating: A+,,,,
Greene Builders Inc,Greene Builders Inc,info@redcircle.biz,44 Montgomery St Ste 1255,San Francisco,CA,94104,(415) 399-9222,Building Contractors-Commercial & Industrial,General Contractors,Altering & Remodeling Contractors,BBB Rating: A+,,,,
Vanir Construction Management Inc,Vanir Construction Management Inc,info@redcircle.biz,180 Montgomery St,San Francisco,CA,94104,(415) 284-9050,Building Contractors-Commercial & Industrial,Construction Management,General Contractors,,,,,
BCCI Construction Company,BCCI Construction Company,info@redcircle.biz,555 California St,San Francisco,CA,94104,(415) 433-1002,Building Contractors-Commercial & Industrial,Home Builders,Construction Management,,,,,
Peacock Construction Inc,Peacock Construction Inc,info@redcircle.biz,200 Pine St Fl 4,San Francisco,CA,94104,(415) 217-5095,Building Contractors-Commercial & Industrial,General Contractors,Altering & Remodeling Contractors,BBB Rating: A+,,,,
Mc Carthy Building Co Inc,Mc Carthy Building Co Inc,info@redcircle.biz,343 Sansome St Ste 14,San Francisco,CA,94104,(415) 397-5151,Building Contractors-Commercial & Industrial,General Contractors,Building Maintenance,,,,,
Turner Construction Co,Turner Construction Co,info@redcircle.biz,311 California St,San Francisco,CA,94104,(212) 229-6000,Building Contractors-Commercial & Industrial,Construction Consultants,General Contractors,,,,,
The Boldt Company,The Boldt Company,info@redcircle.biz,455 Market St Ste 550,San Francisco,CA,94105,(415) 762-8311,Building Contractors-Commercial & Industrial,General Contractors,Building Construction Consultants,,,,,
Cannon Constructors Inc,Cannon Constructors Inc,info@redcircle.biz,301 Howard St Ste 130,San Francisco,CA,94105,(415) 546-5500,Building Contractors-Commercial & Industrial,General Contractors,Altering & Remodeling Contractors,,,,,
Commercial Interior Builders,Commercial Interior Builders,info@redcircle.biz,101 The Embarcadero Ste 205,San Francisco,CA,94105,(415) 896-1102,Building Contractors-Commercial & Industrial,General Contractors,Building Contractors,,,,,
Sierra Mountain Constr Inc,Sierra Mountain Constr Inc,info@redcircle.biz,55 New Montgomery St Ste 512,San Francisco,CA,94105,(415) 896-2859,Building Contractors-Commercial & Industrial,General Contractors,Altering & Remodeling Contractors,,,,,
SC Builders,SC Builders,info@redcircle.biz,109 Stevenson St Fl 3,San Francisco,CA,94105,(415) 757-0405,Building Contractors-Commercial & Industrial,General Contractors,Altering & Remodeling Contractors,,,,,
Merced River Construction Co,Merced River Construction Co,info@redcircle.biz,75 Hawthorne St,San Francisco,CA,94105,(415) 777-4142,Building Contractors-Commercial & Industrial,Home Builders,Building Contractors,,,,,
Turner Construction,Turner Construction,info@redcircle.biz,120 2nd St,San Francisco,CA,94105,(415) 442-5100,Building Contractors-Commercial & Industrial,Construction Consultants,General Contractors,,,,,
Moto Development,Moto Development,info@redcircle.biz,85 2nd St Ste 710,San Francisco,CA,94105,(415) 281-4800,Building Contractors-Commercial & Industrial,Consulting Engineers,Mechanical Engineers,,,,,
Suffolk Construction,Suffolk Construction,info@redcircle.biz,525 Market St,San Francisco,CA,94105,(415) 848-0500,Building Contractors-Commercial & Industrial,General Contractors,Home Builders,,,,,
Narrowback Construction,Narrowback Construction,info@redcircle.biz,467 Mission St,San Francisco,CA,94105,(415) 841-9172,Building Contractors-Commercial & Industrial,Home Builders,,,,,,
Clark Construction,Clark Construction,info@redcircle.biz,450 Mission St,San Francisco,CA,94105,(415) 541-7718,Building Contractors-Commercial & Industrial,Home Builders,General Contractors,,,,,
Mcrt Northern California Construction,Mcrt Northern California Construction,info@redcircle.biz,450 Harrison St,San Francisco,CA,94105,(415) 874-9374,Building Contractors-Commercial & Industrial,General Contractors,Real Estate Developers,,,,,
Webcor Builders,Webcor Builders,info@redcircle.biz,175 Beale St,San Francisco,CA,94105,(415) 957-5951,Building Contractors-Commercial & Industrial,General Contractors,Real Estate Developers,,,,,
Bcci Construction,Bcci Construction,info@redcircle.biz,121 Spear St,San Francisco,CA,94105,(415) 546-9373,Building Contractors-Commercial & Industrial,Home Builders,General Contractors,,,,,
City Building Inc,City Building Inc,info@redcircle.biz,26 Pier,San Francisco,CA,94105,(415) 285-1711,Building Contractors-Commercial & Industrial,Altering & Remodeling Contractors,Building Construction Consultants,,,,,
The Lawson Roofing Company,The Lawson Roofing Company,info@redcircle.biz,1495 Tennessee St,San Francisco,CA,94107,(415) 762-5646,Building Contractors-Commercial & Industrial,Building Contractors,Roofing Contractors,BBB Rating: A+,,,,
Sozo Design,Sozo Design,info@redcircle.biz,2325 3rd St Ste 317,San Francisco,CA,94107,(415) 626-7696,Building Contractors-Commercial & Industrial,Designers-Industrial & Commercial,Architects,,,,,
Cameron Construction Mana,Cameron Construction Mana,info@redcircle.biz,187 Berry St,San Francisco,CA,94107,(415) 543-0829,Building Contractors-Commercial & Industrial,,,,,,,
Lenartstudios,Lenartstudios,info@redcircle.biz,48 Colin P Kelly Jr St,San Francisco,CA,94107,(415) 495-5550,Building Contractors-Commercial & Industrial,Designers-Industrial & Commercial,Interior Designers & Decorators,,,,,
Gwc,Gwc,info@redcircle.biz,1089 Tennessee St,San Francisco,CA,94107,(415) 550-7118,Building Contractors-Commercial & Industrial,,,,,,,
Richlen Construction,Richlen Construction,info@redcircle.biz,546 Bryant St,San Francisco,CA,94107,(415) 904-0900,Building Contractors-Commercial & Industrial,General Contractors,Home Builders,,,,,
Nibbi Brothers,Nibbi Brothers,info@redcircle.biz,180 Hubbell St,San Francisco,CA,94107,(415) 863-1820,Building Contractors-Commercial & Industrial,Building Contractors,General Contractors,,,,,
DFI Construction,DFI Construction,info@redcircle.biz,660 4th St # 535,San Francisco,CA,94107,(415) 725-9797,Building Contractors-Commercial & Industrial,General Contractors,Building Maintenance,BBB Rating: A+,,,,
Field Construction,Field Construction,info@redcircle.biz,490 2nd St Ste 100,San Francisco,CA,94107,(415) 648-8140,Building Contractors-Commercial & Industrial,General Contractors,Building Contractors,BBB Rating: A+,,,,
Shelterbelt Builders,Shelterbelt Builders,info@redcircle.biz,38 Pier,San Francisco,CA,94107,(415) 357-1500,Building Contractors-Commercial & Industrial,General Contractors,Real Estate Developers,,,,,
Metropolitan Electrical Construction Inc,Metropolitan Electrical Construction Inc,info@redcircle.biz,2400 3rd St,San Francisco,CA,94107,(415) 642-3000,Building Contractors-Commercial & Industrial,General Contractors,Real Estate Developers,BBB Rating: A+,,,,
Aspen Contractors Inc,Aspen Contractors Inc,info@redcircle.biz,953 Folsom St,San Francisco,CA,94107,(415) 442-1818,Building Contractors-Commercial & Industrial,General Contractors,Fireplaces,BBB Rating: A+,,,,
Arcon Construction Corp.,Arcon Construction Corp.,info@redcircle.biz,259 Clara St,San Francisco,CA,94107,(415) 369-9643,Building Contractors-Commercial & Industrial,Home Builders,General Contractors,,,,,
Barnard Construction,Barnard Construction,info@redcircle.biz,420 4th St,San Francisco,CA,94107,(415) 546-0577,Building Contractors-Commercial & Industrial,Home Builders,Construction Management,,,,,
M H Construction,M H Construction,info@redcircle.biz,1630 17th St,San Francisco,CA,94107,(415) 558-9778,Building Contractors-Commercial & Industrial,General Contractors,Construction Management,BBB Rating: A+,,,,
Urban Design Consulting Engineers,Urban Design Consulting Engineers,info@redcircle.biz,350 Townsend St Ste 409a,San Francisco,CA,94107,(415) 875-9096,Building Contractors-Commercial & Industrial,Consulting Engineers,Business Coaches & Consultants,,,,,
Plant Construction Co,Plant Construction Co,info@redcircle.biz,680 Folsom St,San Francisco,CA,94107,(415) 536-1465,Building Contractors-Commercial & Industrial,Home Builders,Building Contractors,,,,,
Bcci Construction,Bcci Construction,info@redcircle.biz,680 Folsom St,San Francisco,CA,94107,(415) 344-0269,Building Contractors-Commercial & Industrial,Home Builders,Construction Management,,,,,
Swinerton Builders,Swinerton Builders,info@redcircle.biz,260 Townsend St,San Francisco,CA,94107,(415) 421-2980,Building Contractors-Commercial & Industrial,Construction Consultants,Building Contractors,BBB Rating: A+,,,,
D-Line Constructors,D-Line Constructors,info@redcircle.biz,611 Folsom St,San Francisco,CA,94107,(510) 251-6401,Building Contractors-Commercial & Industrial,General Contractors,Home Builders,,,,,
Steven Rikli Construction Co.,Steven Rikli Construction Co.,info@redcircle.biz,611 Folsom St,San Francisco,CA,94107,(415) 459-2310,Building Contractors-Commercial & Industrial,Construction Management,Home Builders,,,,,
Bcci Construction Co,Bcci Construction Co,info@redcircle.biz,185 Berry St Ste 1200,San Francisco,CA,94107,(415) 817-5100,Building Contractors-Commercial & Industrial,General Contractors,Altering & Remodeling Contractors,,,,,
Podesta Construction,Podesta Construction,info@redcircle.biz,344 Connecticut St,San Francisco,CA,94107,(415) 642-1600,Building Contractors-Commercial & Industrial,Construction Consultants,Building Construction Consultants,BBB Rating: A+,,,,
Webcor Builders,Webcor Builders,info@redcircle.biz,207 King St Ste 300,San Francisco,CA,94107,(415) 978-1000,Building Contractors-Commercial & Industrial,Altering & Remodeling Contractors,Building Construction Consultants,,,,,
The 300 Company LP,The 300 Company LP,info@redcircle.biz,300 Brannan St,San Francisco,CA,94107,(415) 908-3804,Building Contractors-Commercial & Industrial,Building Contractors,Altering & Remodeling Contractors,,,,,
Project Frog Inc.,Project Frog Inc.,info@redcircle.biz,501 2nd St Ste 120,San Francisco,CA,94107,(415) 814-8548,Building Contractors-Commercial & Industrial,"Buildings-Pre-Cut, Prefabricated & Modular",,,,,,
Ntk Construction,Ntk Construction,info@redcircle.biz,698 2nd St,San Francisco,CA,94107,(415) 357-9846,Building Contractors-Commercial & Industrial,Home Builders,Construction Management,,,,,
Norse Builders,Norse Builders,info@redcircle.biz,329 Bryant St Ste 2b,San Francisco,CA,94107,(415) 495-8512,Building Contractors-Commercial & Industrial,Building Contractors,Altering & Remodeling Contractors,,,,,
Mesa Construction,Mesa Construction,info@redcircle.biz,1125 De Haro St,San Francisco,CA,94107,(415) 641-7979,Building Contractors-Commercial & Industrial,Building Contractors,Home Builders,,,,,
Devcon Construction,Devcon Construction,info@redcircle.biz,2192 3rd St,San Francisco,CA,94107,(415) 874-9316,Building Contractors-Commercial & Industrial,Home Builders,Building Contractors,,,,,
Park View Construction,Park View Construction,info@redcircle.biz,1025 Tennessee St,San Francisco,CA,94107,(415) 821-9317,Building Contractors-Commercial & Industrial,General Contractors,Home Builders,,,,,
Min Design Co,Min Design Co,info@redcircle.biz,2325 3rd St,San Francisco,CA,94107,(415) 255-9464,Building Contractors-Commercial & Industrial,General Contractors,,,,,,
Saison Global,Saison Global,info@redcircle.biz,2325 3rd St,San Francisco,CA,94107,(415) 814-3712,Building Contractors-Commercial & Industrial,General Contractors,Architects,,,,,
Golden West Construction Co,Golden West Construction Co,info@redcircle.biz,1089 Tennessee St,San Francisco,CA,94107,(415) 550-7118,Building Contractors-Commercial & Industrial,General Contractors,Construction Consultants,BBB Rating: A+,,,,
Transatlantic Construction,Transatlantic Construction,info@redcircle.biz,1189 Tennessee St,San Francisco,CA,94107,(415) 872-6943,Building Contractors-Commercial & Industrial,General Contractors,Building Construction Consultants,,,,,
Buck O'Neill Builders Inc,Buck O'Neill Builders Inc,info@redcircle.biz,1250 Missouri St Unit 102,San Francisco,CA,94107,(415) 695-8700,Building Contractors-Commercial & Industrial,Construction Consultants,General Contractors,,,,,
Majestic Construction,Majestic Construction,info@redcircle.biz,1250 Missouri St,San Francisco,CA,94107,(415) 648-9826,Building Contractors-Commercial & Industrial,General Contractors,Drywall Contractors,,,,,
All Bay Construction Inc.,All Bay Construction Inc.,info@redcircle.biz,1250 Missouri St,San Francisco,CA,94107,(415) 839-5292,Building Contractors-Commercial & Industrial,Home Builders,Deck Builders,,,,,
Narrowback Construction,Narrowback Construction,info@redcircle.biz,2660 3rd St Apt 201,San Francisco,CA,94107,(415) 647-1069,Building Contractors-Commercial & Industrial,Home Builders,Home Improvements,,,,,
Pizziconi Construction,Pizziconi Construction,info@redcircle.biz,1288 Missouri St,San Francisco,CA,94107,(415) 647-2702,Building Contractors-Commercial & Industrial,General Contractors,Altering & Remodeling Contractors,,,,,
Bcci Construction,Bcci Construction,info@redcircle.biz,Ahn 1,San Francisco,CA,94107,(415) 896-2095,Building Contractors-Commercial & Industrial,Home Builders,Construction Consultants,,,,,
Craig Hines Designs Inc,Craig Hines Designs Inc,info@redcircle.biz,10 Miller Pl,San Francisco,CA,94108,(415) 773-0453,Building Contractors-Commercial & Industrial,Designers-Industrial & Commercial,Architects,,,,,
Suffolk Construction,Suffolk Construction,info@redcircle.biz,601 California St,San Francisco,CA,94108,(415) 395-9910,Building Contractors-Commercial & Industrial,General Contractors,Home Builders,,,,,
Principal Builders INC,Principal Builders INC,info@redcircle.biz,240 Stockton St Ste 500,San Francisco,CA,94108,(415) 434-1500,Building Contractors-Commercial & Industrial,Home Builders,Altering & Remodeling Contractors,,,,,
Csb Telecom Services Inc,Csb Telecom Services Inc,info@redcircle.biz,447 Sutter St,San Francisco,CA,94108,(415) 525-3186,Building Contractors-Commercial & Industrial,General Contractors,,,,,,
Stephenson Construction,Stephenson Construction,info@redcircle.biz,1100 Sacramento St,San Francisco,CA,94108,(415) 814-2117,Building Contractors-Commercial & Industrial,General Contractors,Home Builders,,,,,
Fisher Development Inc,Fisher Development Inc,info@redcircle.biz,601 California St Ste 300,San Francisco,CA,94108,(415) 228-3060,Building Contractors-Commercial & Industrial,General Contractors,,,,,,
Chan Arther,Chan Arther,info@redcircle.biz,776 Clay St,San Francisco,CA,94108,(415) 986-3006,Building Contractors-Commercial & Industrial,Building Contractors,Altering & Remodeling Contractors,,,,,
Josehart Construction,Josehart Construction,info@redcircle.biz,733 Kearny St,San Francisco,CA,94108,(415) 913-7291,Building Contractors-Commercial & Industrial,Construction Management,Home Builders,,,,,
California Painting & Decorating,California Painting & Decorating,info@redcircle.biz,1102 Hyde St,San Francisco,CA,94109,(415) 213-4571,Building Contractors-Commercial & Industrial,Home Repair & Maintenance,Antiques,BBB Rating: A+,,,,
Build Group,Build Group,info@redcircle.biz,900 Van Ness Ave,San Francisco,CA,94109,(415) 624-3331,Building Contractors-Commercial & Industrial,General Contractors,,,,,,
Polk Street Building,Polk Street Building,info@redcircle.biz,1424 Polk St,San Francisco,CA,94109,(415) 345-8574,Building Contractors-Commercial & Industrial,Building Contractors,Altering & Remodeling Contractors,,,,,
Rivera Construction Inc,Rivera Construction Inc,info@redcircle.biz,850 Van Ness Ave,San Francisco,CA,94109,(415) 206-9479,Building Contractors-Commercial & Industrial,General Contractors,Real Estate Developers,BBB Rating: A+,,,,
Caruso Construction,Caruso Construction,info@redcircle.biz,1693 Polk St,San Francisco,CA,94109,(415) 674-3969,Building Contractors-Commercial & Industrial,Construction Consultants,Altering & Remodeling Contractors,BBB Rating: A+,,,,
Maintain A Property Maintenance Service,Maintain A Property Maintenance Service,info@redcircle.biz,2800 Van Ness Ave,San Francisco,CA,94109,(415) 447-2007,Building Contractors-Commercial & Industrial,General Contractors,Altering & Remodeling Contractors,,,,,
Peak General Contractors Inc,Peak General Contractors Inc,info@redcircle.biz,850 Van Ness Ave,San Francisco,CA,94109,(415) 970-1458,Building Contractors-Commercial & Industrial,General Contractors,Real Estate Developers,,,,,
Acc Air Inc,Acc Air Inc,info@redcircle.biz,850 Van Ness Ave,San Francisco,CA,94109,(415) 821-9094,Building Contractors-Commercial & Industrial,Building Contractors,General Contractors,,,,,
Ba Pac Sho Daniel Prieto D,Ba Pac Sho Daniel Prieto D,info@redcircle.biz,850 Van Ness Ave,San Francisco,CA,94109,(415) 206-9479,Building Contractors-Commercial & Industrial,Drywall Contractors,Home Builders,,,,,
Avalon Construction,Avalon Construction,info@redcircle.biz,850 Van Ness Ave,San Francisco,CA,94109,(415) 824-1488,Building Contractors-Commercial & Industrial,Concrete Contractors,General Contractors,,,,,
M V Construction,M V Construction,info@redcircle.biz,947 Geary St,San Francisco,CA,94109,(415) 441-2637,Building Contractors-Commercial & Industrial,General Contractors,Home Builders,,,,,
Cairn Construction,Cairn Construction,info@redcircle.biz,829 Geary St,San Francisco,CA,94109,(415) 931-6930,Building Contractors-Commercial & Industrial,Home Builders,,,,,,
Molloy Construction Co,Molloy Construction Co,info@redcircle.biz,1301 Post St Ste 100,San Francisco,CA,94109,(415) 474-7808,Building Contractors-Commercial & Industrial,General Contractors,Home Builders,,,,,
Simply Parking,Simply Parking,info@redcircle.biz,74 Hemlock St,San Francisco,CA,94109,(415) 673-1918,Building Contractors-Commercial & Industrial,Parking Stations & Garages-Construction,Parking Lots & Garages,,,,,
James Meeneghan Construction,James Meeneghan Construction,info@redcircle.biz,989 Sutter St,San Francisco,CA,94109,(415) 829-2354,Building Contractors-Commercial & Industrial,Home Builders,Construction Consultants,,,,,
Renovattio Construction,Renovattio Construction,info@redcircle.biz,832 Sutter St,San Francisco,CA,94109,(415) 589-7249,Building Contractors-Commercial & Industrial,Home Builders,Real Estate Developers,,,,,
Cullinae Construction,Cullinae Construction,info@redcircle.biz,1535 Pine St,San Francisco,CA,94109,(415) 861-9200,Building Contractors-Commercial & Industrial,Home Builders,General Contractors,,,,,
L -J Sf,L -J Sf,info@redcircle.biz,1635 California St,San Francisco,CA,94109,(415) 931-3308,Building Contractors-Commercial & Industrial,Building Contractors,,,,,,
E'equity Builders Inc,E'equity Builders Inc,info@redcircle.biz,1475 Polk St,San Francisco,CA,94109,(415) 592-0003,Building Contractors-Commercial & Industrial,General Contractors,Building Contractors,,,,,
Bellcore Construction,Bellcore Construction,info@redcircle.biz,1461 California St,San Francisco,CA,94109,(415) 529-2915,Building Contractors-Commercial & Industrial,General Contractors,Home Builders,,,,,
Prc Construction,Prc Construction,info@redcircle.biz,1900 Gough St,San Francisco,CA,94109,(415) 213-4694,Building Contractors-Commercial & Industrial,General Contractors,,,,,,
Siena Pacific Inc,Siena Pacific Inc,info@redcircle.biz,1725 Clay St Ste 101,San Francisco,CA,94109,(415) 931-8294,Building Contractors-Commercial & Industrial,Building Contractors,Altering & Remodeling Contractors,,,,,
K2 Builders,K2 Builders,info@redcircle.biz,1601 Larkin St,San Francisco,CA,94109,(415) 674-4157,Building Contractors-Commercial & Industrial,Home Builders,Real Estate Developers,,,,,
James E Roberts Obayshi Corp,James E Roberts Obayshi Corp,info@redcircle.biz,1790 Washington St,San Francisco,CA,94109,(415) 655-9930,Building Contractors-Commercial & Industrial,Building Construction Consultants,Construction Consultants,,,,,
Moroso Construction Inc,Moroso Construction Inc,info@redcircle.biz,2006 Washington St,San Francisco,CA,94109,(415) 678-5329,Building Contractors-Commercial & Industrial,General Contractors,Altering & Remodeling Contractors,,,,,
KG Bell Construction,KG Bell Construction,info@redcircle.biz,1215 Jackson St,San Francisco,CA,94109,(415) 292-6729,Building Contractors-Commercial & Industrial,Construction Consultants,Construction Management,,,,,
Luxor Construction,Luxor Construction,info@redcircle.biz,1469 Pacific Ave,San Francisco,CA,94109,(415) 202-0610,Building Contractors-Commercial & Industrial,General Contractors,Home Builders,,,,,
Aequitas Constructors,Aequitas Constructors,info@redcircle.biz,1800 Pacific Ave,San Francisco,CA,94109,(415) 921-8033,Building Contractors-Commercial & Industrial,Construction Management,Home Builders,,,,,
Eutricity,Eutricity,info@redcircle.biz,1536 Jones St,San Francisco,CA,94109,(415) 559-9931,Building Contractors-Commercial & Industrial,Electric Contractors-Commercial & Industrial,Electricians,,,,,
Centrix Builders Inc,Centrix Builders Inc,info@redcircle.biz,1650 Broadway,San Francisco,CA,94109,(415) 931-3160,Building Contractors-Commercial & Industrial,General Contractors,Real Estate Developers,,,,,
Mecca Construction,Mecca Construction,info@redcircle.biz,1250 Vallejo St,San Francisco,CA,94109,(415) 255-4575,Building Contractors-Commercial & Industrial,Home Builders,,,,,,
Webb Construction,Webb Construction,info@redcircle.biz,1945 Hyde St,San Francisco,CA,94109,(415) 932-6189,Building Contractors-Commercial & Industrial,General Contractors,Altering & Remodeling Contractors,,,,,
Joyce Construction Inc,Joyce Construction Inc,info@redcircle.biz,2655 Van Ness Ave Ste 1,San Francisco,CA,94109,(415) 563-8750,Building Contractors-Commercial & Industrial,General Contractors,Building Construction Consultants,,,,,
Saturn Construction,Saturn Construction,info@redcircle.biz,50 Grenard Ter,San Francisco,CA,94109,(415) 359-9185,Building Contractors-Commercial & Industrial,Home Builders,,,,,,
Biller McCoy Builders Inc.,Biller McCoy Builders Inc.,info@redcircle.biz,445 Hampshire St,San Francisco,CA,94110,(415) 626-0541,Building Contractors-Commercial & Industrial,Building Contractors,,,,,,
A Ruiz Construction,A Ruiz Construction,info@redcircle.biz,1601 Cortland Ave,San Francisco,CA,94110,(415) 647-4010,Building Contractors-Commercial & Industrial,Home Builders,General Contractors,BBB Rating: A+,,,,
V & Company Fine Builders,V & Company Fine Builders,info@redcircle.biz,2535 24th St,San Francisco,CA,94110,(415) 648-8779,Building Contractors-Commercial & Industrial,Building Contractors,Real Estate Developers,,,,,
First Class Structures,First Class Structures,info@redcircle.biz,2957 Harrison St,San Francisco,CA,94110,(707) 570-1607,Building Contractors-Commercial & Industrial,Building Construction Consultants,Building Contractors,,,,,
Maximo Construction,Maximo Construction,info@redcircle.biz,322 Cortland Ave,San Francisco,CA,94110,(415) 587-3734,Building Contractors-Commercial & Industrial,Home Builders,Building Contractors,,,,,
Buena Vista Construction,Buena Vista Construction,info@redcircle.biz,3265 17th St Ste 403,San Francisco,CA,94110,(415) 863-6550,Building Contractors-Commercial & Industrial,General Contractors,Altering & Remodeling Contractors,,,,,
Cappelletti D & Sons Inc,Cappelletti D & Sons Inc,info@redcircle.biz,379 Shotwell St,San Francisco,CA,94110,(415) 621-8191,Building Contractors-Commercial & Industrial,General Contractors,Building Contractors,BBB Rating: A+,,,,
Imbelloni Construction Co,Imbelloni Construction Co,info@redcircle.biz,3260 19th St,San Francisco,CA,94110,(650) 692-7333,Building Contractors-Commercial & Industrial,General Contractors,Drywall Contractors,,,,,
Restoration Workshop,Restoration Workshop,info@redcircle.biz,630 Treat Ave,San Francisco,CA,94110,(415) 824-1850,Building Contractors-Commercial & Industrial,Altering & Remodeling Contractors,Building Contractors,BBB Rating: A+,,,,
Byrnes & McClellan Construction Inc,Byrnes & McClellan Construction Inc,info@redcircle.biz,3520 20th St Apt 15,San Francisco,CA,94110,(415) 503-0251,Building Contractors-Commercial & Industrial,General Contractors,Real Estate Developers,,,,,
Hough Construction,Hough Construction,info@redcircle.biz,3332 22nd St,San Francisco,CA,94110,(415) 282-1977,Building Contractors-Commercial & Industrial,Construction Estimates,Home Builders,,,,,
Mike Ferrell Construction,Mike Ferrell Construction,info@redcircle.biz,995 Guerrero St # 1,San Francisco,CA,94110,(415) 606-2691,Building Contractors-Commercial & Industrial,Home Builders,Handyman Services,,,,,
Vonnegut Thoreau Construction,Vonnegut Thoreau Construction,info@redcircle.biz,850 Shotwell St,San Francisco,CA,94110,(415) 795-3603,Building Contractors-Commercial & Industrial,Home Builders,Construction Consultants,,,,,
Kudos,Kudos,info@redcircle.biz,115 Fair Oaks St,San Francisco,CA,94110,(415) 648-0928,Building Contractors-Commercial & Industrial,General Contractors,Altering & Remodeling Contractors,,,,,
Tom McDonald Construction,Tom McDonald Construction,info@redcircle.biz,220 Fair Oaks St,San Francisco,CA,94110,(415) 282-2674,Building Contractors-Commercial & Industrial,General Contractors,Building Construction Consultants,,,,,
5 12 Construction,5 12 Construction,info@redcircle.biz,1207 Guerrero St,San Francisco,CA,94110,(415) 826-0606,Building Contractors-Commercial & Industrial,General Contractors,Building Contractors,,,,,
Matarozzi & Pelsinger Builders,Matarozzi & Pelsinger Builders,info@redcircle.biz,1060 Capp St,San Francisco,CA,94110,(415) 285-6930,Building Contractors-Commercial & Industrial,General Contractors,Altering & Remodeling Contractors,,,,,
Alpha Bay Builders Inc.,Alpha Bay Builders Inc.,info@redcircle.biz,3314 Cesar Chavez,San Francisco,CA,94110,(415) 282-6188,Building Contractors-Commercial & Industrial,General Contractors,Altering & Remodeling Contractors,,,,,
Boughton Construction,Boughton Construction,info@redcircle.biz,249 Precita Ave,San Francisco,CA,94110,(415) 647-0222,Building Contractors-Commercial & Industrial,General Contractors,Building Contractors,,,,,
Hough Construction,Hough Construction,info@redcircle.biz,3159 Mission St,San Francisco,CA,94110,(415) 282-1977,Building Contractors-Commercial & Industrial,Construction Estimates,Altering & Remodeling Contractors,,,,,
Pallas Construction,Pallas Construction,info@redcircle.biz,1515 Treat Ave,San Francisco,CA,94110,(415) 824-6461,Building Contractors-Commercial & Industrial,Construction Consultants,Home Builders,,,,,
Upcycle Builders Inc,Upcycle Builders Inc,info@redcircle.biz,1632 Alabama St,San Francisco,CA,94110,(415) 826-2878,Building Contractors-Commercial & Industrial,Home Builders,Real Estate Developers,,,,,
Tom Can Construction,Tom Can Construction,info@redcircle.biz,1608 Treat Ave,San Francisco,CA,94110,(415) 824-4869,Building Contractors-Commercial & Industrial,Construction Consultants,Home Builders,BBB Rating: A+,,,,
Northpoint Builders,Northpoint Builders,info@redcircle.biz,3331 Harrison St,San Francisco,CA,94110,(415) 826-1847,Building Contractors-Commercial & Industrial,Building Contractors,Altering & Remodeling Contractors,,,,,
Harris Construction Co,Harris Construction Co,info@redcircle.biz,186 Nevada St,San Francisco,CA,94110,(415) 585-2854,Building Contractors-Commercial & Industrial,General Contractors,Home Builders,,,,,
Kohlmyer Designs,Kohlmyer Designs,info@redcircle.biz,432 Cortland Ave,San Francisco,CA,94110,(415) 400-4530,Building Contractors-Commercial & Industrial,Home Builders,,,,,,
Howard Robert Builders Inc,Howard Robert Builders Inc,info@redcircle.biz,562 Ellsworth St,San Francisco,CA,94110,(415) 643-5579,Building Contractors-Commercial & Industrial,General Contractors,Real Estate Developers,,,,,
Bundgaarden,Bundgaarden,info@redcircle.biz,133 Porter St,San Francisco,CA,94110,(415) 647-0133,Building Contractors-Commercial & Industrial,Building Contractors,General Contractors,,,,,
"Ruby Systems, Inc.","Ruby Systems, Inc.",info@redcircle.biz,111 Pine St Ste 1405b,San Francisco,CA,94111,(415) 930-4669,Building Contractors-Commercial & Industrial,,,,,,,
Enterprise Construction General Contrs,Enterprise Construction General Contrs,info@redcircle.biz,407 Sansome St,San Francisco,CA,94111,(415) 438-4795,Building Contractors-Commercial & Industrial,General Contractors,,,,,,
Moose And Zambrano,Moose And Zambrano,info@redcircle.biz,639 Front St,San Francisco,CA,94111,(415) 274-2033,Building Contractors-Commercial & Industrial,,,,,,,
Hathaway Dinwiddie Construction,Hathaway Dinwiddie Construction,info@redcircle.biz,275 Battery St Ste 300,San Francisco,CA,94111,(415) 986-2718,Building Contractors-Commercial & Industrial,Construction Consultants,Home Builders,,,,,
DPR Construction,DPR Construction,info@redcircle.biz,1050 Sansome St Ste 600,San Francisco,CA,94111,(415) 782-3700,Building Contractors-Commercial & Industrial,General Contractors,Construction Consultants,,,,,
Modern Construction,Modern Construction,info@redcircle.biz,22 Battery St Ste 313,San Francisco,CA,94111,(415) 398-8500,Building Contractors-Commercial & Industrial,General Contractors,Building Construction Consultants,,,,,
Hunt Construction,Hunt Construction,info@redcircle.biz,100 Pine St Ste 725,San Francisco,CA,94111,(415) 391-3930,Building Contractors-Commercial & Industrial,General Contractors,Real Estate Developers,,,,,
GCI General Contractors,GCI General Contractors,info@redcircle.biz,825 Battery St Fl 3,San Francisco,CA,94111,(415) 978-2790,Building Contractors-Commercial & Industrial,General Contractors,Home Builders,,,,,
BCCI Construction Company,BCCI Construction Company,info@redcircle.biz,1160 Battery St Ste 250,San Francisco,CA,94111,(415) 817-5100,Building Contractors-Commercial & Industrial,Building Contractors,Real Estate Developers,BBB Rating: A+,,,,
MGM Construction,MGM Construction,info@redcircle.biz,529 Commercial St Fl 300,San Francisco,CA,94111,(415) 434-0434,Building Contractors-Commercial & Industrial,Building Contractors,Home Builders,,,,,
Regenerative Ventures Inc,Regenerative Ventures Inc,info@redcircle.biz,150 California St Fl 3,San Francisco,CA,94111,(415) 230-0740,Building Contractors-Commercial & Industrial,General Contractors,Building Construction Consultants,,,,,
Skyline Construction,Skyline Construction,info@redcircle.biz,731 Sansome St Fl 4,San Francisco,CA,94111,(415) 908-1020,Building Contractors-Commercial & Industrial,Building Contractors,Home Builders,,,,,
San Francisco Commercial Builders,San Francisco Commercial Builders,info@redcircle.biz,88 Jackson St,San Francisco,CA,94111,(415) 552-4220,Building Contractors-Commercial & Industrial,General Contractors,Altering & Remodeling Contractors,,,,,
Heise's Plumbing,Heise's Plumbing,info@redcircle.biz,260 Ocean Ave,San Francisco,CA,94112,(415) 333-0704,Building Contractors-Commercial & Industrial,Water Heaters,Gas Lines-Installation & Repairing,,,,,
Portola Building Co,Portola Building Co,info@redcircle.biz,4192 Mission St,San Francisco,CA,94112,(415) 585-0561,Building Contractors-Commercial & Industrial,General Contractors,Altering & Remodeling Contractors,,,,,
Ken Ng Construction,Ken Ng Construction,info@redcircle.biz,29 Castle Manor Ave,San Francisco,CA,94112,(415) 586-6871,Building Contractors-Commercial & Industrial,,,,,,,
"Chongson Construction, Inc.","Chongson Construction, Inc.",info@redcircle.biz,464 Brunswick St,San Francisco,CA,94112,(415) 334-3658,Building Contractors-Commercial & Industrial,General Contractors,Altering & Remodeling Contractors,BBB Rating: A+,,,,
Wellington Home Inspection Services,Wellington Home Inspection Services,info@redcircle.biz,4722 Mission St,San Francisco,CA,94112,(415) 239-1700,Building Contractors-Commercial & Industrial,Building Contractors,Flooring Contractors,,,,,
JG Construction,JG Construction,info@redcircle.biz,227 Capitol Ave,San Francisco,CA,94112,(415) 406-1241,Building Contractors-Commercial & Industrial,General Contractors,Altering & Remodeling Contractors,,,,,
J Flores Construction Inc,J Flores Construction Inc,info@redcircle.biz,4229 Mission St,San Francisco,CA,94112,(415) 337-2934,Building Contractors-Commercial & Industrial,General Contractors,Real Estate Developers,,,,,
C & T Construction,C & T Construction,info@redcircle.biz,334 Hearst Ave,San Francisco,CA,94112,(415) 587-8368,Building Contractors-Commercial & Industrial,General Contractors,Home Builders,,,,,
Apollo Construction Co,Apollo Construction Co,info@redcircle.biz,1570 Alemany Blvd,San Francisco,CA,94112,(415) 587-1404,Building Contractors-Commercial & Industrial,Home Builders,Carpenters,,,,,
Bay Area Ceiling Pro & Painting,Bay Area Ceiling Pro & Painting,info@redcircle.biz,338 Vienna St,San Francisco,CA,94112,(415) 586-4100,Building Contractors-Commercial & Industrial,Ceiling Cleaning,Wall Cleaning,,,,,
P & A Construction,P & A Construction,info@redcircle.biz,493 Vienna St,San Francisco,CA,94112,(415) 334-7511,Building Contractors-Commercial & Industrial,Building Contractors,Altering & Remodeling Contractors,,,,,
Roebuck Construction,Roebuck Construction,info@redcircle.biz,2301 San Jose Ave,San Francisco,CA,94112,(415) 769-5150,Building Contractors-Commercial & Industrial,Home Builders,General Contractors,,,,,
Neng Construction Inc,Neng Construction Inc,info@redcircle.biz,1125 Plymouth Ave,San Francisco,CA,94112,(415) 587-8822,Building Contractors-Commercial & Industrial,Home Builders,Construction Consultants,,,,,
Hutchinson Construction Co Inc,Hutchinson Construction Co Inc,info@redcircle.biz,142 Guttenberg St,San Francisco,CA,94112,(415) 584-5669,Building Contractors-Commercial & Industrial,Building Contractors,Altering & Remodeling Contractors,,,,,
Wickman Development & Construction,Wickman Development & Construction,info@redcircle.biz,5616 Mission St,San Francisco,CA,94112,(415) 239-4500,Building Contractors-Commercial & Industrial,Construction Consultants,General Contractors,,,,,
Joseph C Sand Co. Inc.,Joseph C Sand Co. Inc.,info@redcircle.biz,292 Church St,San Francisco,CA,94114,(415) 621-5200,Building Contractors-Commercial & Industrial,Water Heaters,Plumbers,,,,,
Clipper Construction Inc,Clipper Construction Inc,info@redcircle.biz,2281 Market St,San Francisco,CA,94114,(415) 621-4733,Building Contractors-Commercial & Industrial,General Contractors,Real Estate Developers,,,,,
Construction Buhler,Construction Buhler,info@redcircle.biz,3674 16th St,San Francisco,CA,94114,(415) 658-7846,Building Contractors-Commercial & Industrial,General Contractors,Building Construction Consultants,,,,,
Bay-Coastal Construction Company,Bay-Coastal Construction Company,info@redcircle.biz,582 Castro St,San Francisco,CA,94114,(415) 265-9811,Building Contractors-Commercial & Industrial,General Contractors,Home Builders,BBB Rating: A+,,,,
Benjamin Shaw,Benjamin Shaw,info@redcircle.biz,584 Castro St,San Francisco,CA,94114,(415) 452-4262,Building Contractors-Commercial & Industrial,General Contractors,Concrete Contractors,,,,,
Caletti Jungsten Construction,Caletti Jungsten Construction,info@redcircle.biz,4349 18th St,San Francisco,CA,94114,(415) 801-5885,Building Contractors-Commercial & Industrial,Home Builders,,,,,,
Zolman Construction,Zolman Construction,info@redcircle.biz,4235 19th St,San Francisco,CA,94114,(415) 531-4639,Building Contractors-Commercial & Industrial,Home Builders,General Contractors,,,,,
Design Line Construction Inc.,Design Line Construction Inc.,info@redcircle.biz,901 Castro St,San Francisco,CA,94114,(415) 647-1373,Building Contractors-Commercial & Industrial,Building Contractors,Home Builders,,,,,
Jeffery Goffo Construction,Jeffery Goffo Construction,info@redcircle.biz,738 Elizabeth St,San Francisco,CA,94114,(415) 821-0407,Building Contractors-Commercial & Industrial,General Contractors,Home Builders,,,,,
Brian Harty Construction,Brian Harty Construction,info@redcircle.biz,4171 24th St,San Francisco,CA,94114,(415) 655-3765,Building Contractors-Commercial & Industrial,Home Builders,General Contractors,,,,,
Usa National Construc,Usa National Construc,info@redcircle.biz,3150 California St,San Francisco,CA,94115,(415) 928-2982,Building Contractors-Commercial & Industrial,Building Contractors,,,,,,
American Realty & Construction Inc,American Realty & Construction Inc,info@redcircle.biz,1489 Webster St Ste 218,San Francisco,CA,94115,(415) 928-6600,Building Contractors-Commercial & Industrial,Home Builders,Real Estate Buyer Brokers,,,,,
K2 Builders,K2 Builders,info@redcircle.biz,1600 Webster St,San Francisco,CA,94115,(415) 252-1507,Building Contractors-Commercial & Industrial,General Contractors,Real Estate Developers,,,,,
Built By Todd,Built By Todd,info@redcircle.biz,1901 Turk St Apt 3,San Francisco,CA,94115,(415) 738-0618,Building Contractors-Commercial & Industrial,General Contractors,Altering & Remodeling Contractors,,,,,
Olson Design And Construction,Olson Design And Construction,info@redcircle.biz,2130 Fillmore St,San Francisco,CA,94115,(415) 630-2135,Building Contractors-Commercial & Industrial,General Contractors,Building Contractors,,,,,
Canyon Construction,Canyon Construction,info@redcircle.biz,2614 Buchanan St,San Francisco,CA,94115,(415) 654-5230,Building Contractors-Commercial & Industrial,General Contractors,Building Construction Consultants,,,,,
Ryan Associates,Ryan Associates,info@redcircle.biz,2786 Broadway St,San Francisco,CA,94115,(415) 563-8171,Building Contractors-Commercial & Industrial,General Contractors,Real Estate Developers,,,,,
Stephenson Construction,Stephenson Construction,info@redcircle.biz,1500 Mcallister St,San Francisco,CA,94115,(415) 872-6134,Building Contractors-Commercial & Industrial,Home Builders,General Contractors,,,,,
Plant Construction Co,Plant Construction Co,info@redcircle.biz,2155 Webster St,San Francisco,CA,94115,(415) 928-1001,Building Contractors-Commercial & Industrial,Home Builders,Construction Management,,,,,
Landmark Construction,Landmark Construction,info@redcircle.biz,2330 Geary Blvd,San Francisco,CA,94115,(415) 922-1169,Building Contractors-Commercial & Industrial,General Contractors,Building Construction Consultants,,,,,
Northhampton Properties,Northhampton Properties,info@redcircle.biz,2606 Jackson St,San Francisco,CA,94115,(415) 567-0701,Building Contractors-Commercial & Industrial,Building Contractors,Altering & Remodeling Contractors,,,,,
Van Acker Construction,Van Acker Construction,info@redcircle.biz,2520 Pacific Ave,San Francisco,CA,94115,(415) 655-3924,Building Contractors-Commercial & Industrial,General Contractors,Home Builders,,,,,
Redhorse Constructors,Redhorse Constructors,info@redcircle.biz,2725 Jackson St,San Francisco,CA,94115,(415) 440-4082,Building Contractors-Commercial & Industrial,Home Builders,Construction Consultants,,,,,
Gar Construction Management,Gar Construction Management,info@redcircle.biz,2602 Pacific Ave,San Francisco,CA,94115,(415) 796-2106,Building Contractors-Commercial & Industrial,Construction Management,General Contractors,,,,,
Saarman Construction,Saarman Construction,info@redcircle.biz,3055 California St,San Francisco,CA,94115,(415) 400-5089,Building Contractors-Commercial & Industrial,Construction Management,Building Construction Consultants,,,,,
Construction Audio Services,Construction Audio Services,info@redcircle.biz,2880 Broadway St,San Francisco,CA,94115,(415) 921-5157,Building Contractors-Commercial & Industrial,Home Builders,Real Estate Developers,,,,,
Jmk Construction Inc,Jmk Construction Inc,info@redcircle.biz,3196 Pacific Ave,San Francisco,CA,94115,(415) 221-8272,Building Contractors-Commercial & Industrial,General Contractors,Real Estate Developers,,,,,
Jeter Built Construction,Jeter Built Construction,info@redcircle.biz,2115 28th Ave,San Francisco,CA,94116,(530) 378-0803,Building Contractors-Commercial & Industrial,General Contractors,Construction Consultants,,,,,
Christopher Gate Construction,Christopher Gate Construction,info@redcircle.biz,2006 10th Ave,San Francisco,CA,94116,(415) 608-3015,Building Contractors-Commercial & Industrial,General Contractors,Building Contractors,,,,,
A A Construction Co,A A Construction Co,info@redcircle.biz,139 Mendosa Ave,San Francisco,CA,94116,(415) 850-1308,Building Contractors-Commercial & Industrial,Building Contractors,Altering & Remodeling Contractors,,,,,
Dam Construction,Dam Construction,info@redcircle.biz,405 Taraval St,San Francisco,CA,94116,(415) 720-3119,Building Contractors-Commercial & Industrial,Building Contractors,Siding Contractors,,,,,
Linebarger Construction & Plumbing,Linebarger Construction & Plumbing,info@redcircle.biz,2464 14th Ave,San Francisco,CA,94116,(415) 731-9235,Building Contractors-Commercial & Industrial,Plumbers,Altering & Remodeling Contractors,,,,,
Whelan & Whelan,Whelan & Whelan,info@redcircle.biz,1353 Ulloa St,San Francisco,CA,94116,(415) 731-9241,Building Contractors-Commercial & Industrial,Building Contractors,Altering & Remodeling Contractors,,,,,
Kerley Construction Inc,Kerley Construction Inc,info@redcircle.biz,2610 16th Ave,San Francisco,CA,94116,(415) 661-0335,Building Contractors-Commercial & Industrial,Building Construction Consultants,General Contractors,,,,,
Euro Tech Construction,Euro Tech Construction,info@redcircle.biz,2115 28th Ave,San Francisco,CA,94116,(415) 564-5809,Building Contractors-Commercial & Industrial,Home Builders,Building Construction Consultants,,,,,
Spryscapes Construction,Spryscapes Construction,info@redcircle.biz,1255 Vicente St,San Francisco,CA,94116,(415) 242-1196,Building Contractors-Commercial & Industrial,Home Builders,Landscape Designers & Consultants,,,,,
Extol Construction,Extol Construction,info@redcircle.biz,2017 Taraval St,San Francisco,CA,94116,(415) 379-4747,Building Contractors-Commercial & Industrial,Home Builders,General Contractors,,,,,
Cy Lo Builder,Cy Lo Builder,info@redcircle.biz,2455 32nd Ave,San Francisco,CA,94116,(415) 566-4473,Building Contractors-Commercial & Industrial,General Contractors,Altering & Remodeling Contractors,,,,,
Palm Construction,Palm Construction,info@redcircle.biz,2563 33rd Ave,San Francisco,CA,94116,(415) 731-7060,Building Contractors-Commercial & Industrial,Building Contractors,Siding Contractors,,,,,
Pic Construction,Pic Construction,info@redcircle.biz,2621 Vicente St,San Francisco,CA,94116,(415) 664-3698,Building Contractors-Commercial & Industrial,Home Builders,General Contractors,,,,,
Irc All Sidings,Irc All Sidings,info@redcircle.biz,2782 40th Ave,San Francisco,CA,94116,(800) 559-0492,Building Contractors-Commercial & Industrial,Siding Contractors,"Windows-Repair, Replacement & Installation",,,,,
Camarina Construction Co,Camarina Construction Co,info@redcircle.biz,2759 41st Ave,San Francisco,CA,94116,(415) 566-0423,Building Contractors-Commercial & Industrial,General Contractors,Altering & Remodeling Contractors,,,,,
Rosconn Construction,Rosconn Construction,info@redcircle.biz,3525 Taraval St,San Francisco,CA,94116,(415) 379-4254,Building Contractors-Commercial & Industrial,Home Builders,Apartment Finder & Rental Service,,,,,
A Plus Contractors,A Plus Contractors,info@redcircle.biz,912 Cole St # 203,San Francisco,CA,94117,(415) 946-0498,Building Contractors-Commercial & Industrial,Home Builders,General Contractors,,,,,
Color Renaissance,Color Renaissance,info@redcircle.biz,530 Divisadero St,San Francisco,CA,94117,(415) 987-6329,Building Contractors-Commercial & Industrial,General Contractors,Painting Contractors,,,,,
Bedrock Construction,Bedrock Construction,info@redcircle.biz,433 Haight St,San Francisco,CA,94117,(415) 934-1325,Building Contractors-Commercial & Industrial,General Contractors,Altering & Remodeling Contractors,BBB Rating: A+,,,,
Fineline Construction,Fineline Construction,info@redcircle.biz,462 Duboce Ave,San Francisco,CA,94117,(415) 792-6957,Building Contractors-Commercial & Industrial,General Contractors,Home Builders,,,,,
Fulcrum Point Construction,Fulcrum Point Construction,info@redcircle.biz,125 Lyon St,San Francisco,CA,94117,(415) 549-7654,Building Contractors-Commercial & Industrial,General Contractors,Home Builders,,,,,
Rosconn Construction,Rosconn Construction,info@redcircle.biz,222 Webster St,San Francisco,CA,94117,(415) 529-1650,Building Contractors-Commercial & Industrial,Home Builders,Apartment Finder & Rental Service,,,,,
Vander Sterre Construction,Vander Sterre Construction,info@redcircle.biz,634 Oak St,San Francisco,CA,94117,(415) 252-5510,Building Contractors-Commercial & Industrial,General Contractors,Altering & Remodeling Contractors,,,,,
Brennan John Co,Brennan John Co,info@redcircle.biz,425 Divisadero St Ste 305,San Francisco,CA,94117,(415) 552-0640,Building Contractors-Commercial & Industrial,General Contractors,Building Contractors,,,,,
Plant Construction,Plant Construction,info@redcircle.biz,1637 Oak St,San Francisco,CA,94117,(415) 817-1916,Building Contractors-Commercial & Industrial,Construction Management,Home Builders,,,,,
Gaelic Construction,Gaelic Construction,info@redcircle.biz,224 Ashbury St,San Francisco,CA,94117,(415) 913-7735,Building Contractors-Commercial & Industrial,Building Contractors,Real Estate Developers,,,,,
Orion Construction Managers,Orion Construction Managers,info@redcircle.biz,2166 Hayes St,San Francisco,CA,94117,(415) 666-9902,Building Contractors-Commercial & Industrial,Construction Management,General Contractors,,,,,
Design Line Construction,Design Line Construction,info@redcircle.biz,25 Belgrave Ave,San Francisco,CA,94117,(415) 463-5703,Building Contractors-Commercial & Industrial,Home Builders,General Contractors,,,,,
Cairn Construction,Cairn Construction,info@redcircle.biz,547 Frederick St,San Francisco,CA,94117,(415) 661-4725,Building Contractors-Commercial & Industrial,General Contractors,Building Construction Consultants,BBB Rating: A+,,,,
Lee Family Corporation,Lee Family Corporation,info@redcircle.biz,778 11th Ave,San Francisco,CA,94118,(415) 751-2669,Building Contractors-Commercial & Industrial,Building Contractors,Roofing Contractors-Commercial & Industrial,BBB Rating: A+,,,,
Mizen Construction,Mizen Construction,info@redcircle.biz,46 Rossi Ave,San Francisco,CA,94118,(415) 517-3377,Building Contractors-Commercial & Industrial,General Contractors,Home Builders,,,,,
Malagic Construction,Malagic Construction,info@redcircle.biz,3410 Geary Blvd,San Francisco,CA,94118,(415) 752-2396,Building Contractors-Commercial & Industrial,General Contractors,Home Builders,,,,,
Jeff King & Co,Jeff King & Co,info@redcircle.biz,251 Balboa St,San Francisco,CA,94118,(415) 221-5012,Building Contractors-Commercial & Industrial,Construction Consultants,Altering & Remodeling Contractors,BBB Rating: A+,,,,
Equator Development Corporation,Equator Development Corporation,info@redcircle.biz,100 Walnut St,San Francisco,CA,94118,(415) 346-3609,Building Contractors-Commercial & Industrial,Altering & Remodeling Contractors,Building Contractors,,,,,
Design Line Construction,Design Line Construction,info@redcircle.biz,115 Walnut St,San Francisco,CA,94118,(415) 829-2718,Building Contractors-Commercial & Industrial,Home Builders,General Contractors,,,,,
Narrowback Construction Co Inc,Narrowback Construction Co Inc,info@redcircle.biz,2656 Mcallister St,San Francisco,CA,94118,(415) 647-1069,Building Contractors-Commercial & Industrial,General Contractors,Building Construction Consultants,,,,,
Towey,Towey,info@redcircle.biz,3626 Geary Blvd,San Francisco,CA,94118,(415) 731-2869,Building Contractors-Commercial & Industrial,Home Builders,Real Estate Developers,,,,,
Prospect Construction,Prospect Construction,info@redcircle.biz,215 Balboa St,San Francisco,CA,94118,(415) 571-8596,Building Contractors-Commercial & Industrial,Home Builders,General Contractors,,,,,
Starlite Construction Co,Starlite Construction Co,info@redcircle.biz,620 6th Ave,San Francisco,CA,94118,(415) 203-8139,Building Contractors-Commercial & Industrial,Building Contractors,Altering & Remodeling Contractors,,,,,
B H M Construction,B H M Construction,info@redcircle.biz,251 6th Ave,San Francisco,CA,94118,(415) 221-1484,Building Contractors-Commercial & Industrial,Construction Management,Home Builders,,,,,
R W Construction,R W Construction,info@redcircle.biz,371 10th Ave,San Francisco,CA,94118,(415) 370-3739,Building Contractors-Commercial & Industrial,Building Contractors,Altering & Remodeling Contractors,,,,,
Heavy Duty Construction,Heavy Duty Construction,info@redcircle.biz,4630 Geary Blvd,San Francisco,CA,94118,(415) 379-3900,Building Contractors-Commercial & Industrial,Building Construction Consultants,Home Builders,,,,,
Biltwell Development Co,Biltwell Development Co,info@redcircle.biz,4745 Geary Blvd,San Francisco,CA,94118,(415) 668-5565,Building Contractors-Commercial & Industrial,Altering & Remodeling Contractors,Building Contractors,,,,,
Josmari Builders,Josmari Builders,info@redcircle.biz,583 15th Ave,San Francisco,CA,94118,(415) 221-2071,Building Contractors-Commercial & Industrial,General Contractors,Home Improvements,BBB Rating: A+,,,,
Building Efficiency,Building Efficiency,info@redcircle.biz,779 32nd Ave,San Francisco,CA,94121,(415) 831-4535,Building Contractors-Commercial & Industrial,Altering & Remodeling Contractors,Building Construction Consultants,,,,,
United Builder Co,United Builder Co,info@redcircle.biz,3422 Balboa St,San Francisco,CA,94121,(415) 386-2223,Building Contractors-Commercial & Industrial,,,,,,,
McCluskey Construction,McCluskey Construction,info@redcircle.biz,2822 Clement St,San Francisco,CA,94121,(415) 750-1121,Building Contractors-Commercial & Industrial,General Contractors,Building Contractors,BBB Rating: A+,,,,
T W Eng Construction Co,T W Eng Construction Co,info@redcircle.biz,3542 Balboa St,San Francisco,CA,94121,(415) 387-4555,Building Contractors-Commercial & Industrial,General Contractors,Altering & Remodeling Contractors,,,,,
K & D Construction,K & D Construction,info@redcircle.biz,854 29th Ave,San Francisco,CA,94121,(415) 933-8940,Building Contractors-Commercial & Industrial,Home Builders,Construction Management,,,,,
L Cabral Construction Co,L Cabral Construction Co,info@redcircle.biz,20 Sea View Ter,San Francisco,CA,94121,(415) 213-5610,Building Contractors-Commercial & Industrial,General Contractors,Home Builders,,,,,
Hughes And Company construction,Hughes And Company construction,info@redcircle.biz,2100 Clement St,San Francisco,CA,94121,(415) 463-5069,Building Contractors-Commercial & Industrial,Home Builders,General Contractors,,,,,
Georgiou Construction,Georgiou Construction,info@redcircle.biz,471 24th Ave,San Francisco,CA,94121,(415) 221-2437,Building Contractors-Commercial & Industrial,Home Builders,Plumbers,,,,,
Trush Construction Co Inc,Trush Construction Co Inc,info@redcircle.biz,90 25th Ave,San Francisco,CA,94121,(415) 386-2885,Building Contractors-Commercial & Industrial,Home Builders,General Contractors,,,,,
Fong B Construction Co,Fong B Construction Co,info@redcircle.biz,867 29th Ave,San Francisco,CA,94121,(415) 750-9809,Building Contractors-Commercial & Industrial,Building Contractors,Home Builders,,,,,
Design Milagros Construction and Remodeling,Design Milagros Construction and Remodeling,info@redcircle.biz,142 28th Ave,San Francisco,CA,94121,(415) 213-5187,Building Contractors-Commercial & Industrial,Home Builders,Home Improvements,,,,,
Heaven's Earth Co Inc,Heaven's Earth Co Inc,info@redcircle.biz,5432 Fulton St,San Francisco,CA,94121,(415) 831-2963,Building Contractors-Commercial & Industrial,Building Contractors,Altering & Remodeling Contractors,,,,,
Moroso Construction,Moroso Construction,info@redcircle.biz,520 El Camino Del Mar,San Francisco,CA,94121,(415) 941-7346,Building Contractors-Commercial & Industrial,Construction Management,Home Builders,,,,,
D & S Leong Association Inc,D & S Leong Association Inc,info@redcircle.biz,540 34th Ave,San Francisco,CA,94121,(415) 221-3838,Building Contractors-Commercial & Industrial,General Contractors,Building Contractors,,,,,
Peninsula Realty & Construction Co,Peninsula Realty & Construction Co,info@redcircle.biz,543 38th Ave,San Francisco,CA,94121,(415) 752-5847,Building Contractors-Commercial & Industrial,Home Builders,,,,,,
First Orthodox Presbyterian Church,First Orthodox Presbyterian Church,info@redcircle.biz,1350 Lawton St,San Francisco,CA,94122,(650) 557-0826,Building Contractors-Commercial & Industrial,Orthodox Presbyterian Churches,Methodist Churches,,,,,
Expert Plumbing Solutions,Expert Plumbing Solutions,info@redcircle.biz,1465 44th Ave,San Francisco,CA,94122,(415) 531-5340,Building Contractors-Commercial & Industrial,Construction Consultants,Building Construction Consultants,BBB Rating: A+,,,,
Swim Studio,Swim Studio,info@redcircle.biz,1243 12th Ave,San Francisco,CA,94122,(415) 731-7946,Building Contractors-Commercial & Industrial,Designers-Industrial & Commercial,Architects,,,,,
Andrew Mihailovsky Contractor,Andrew Mihailovsky Contractor,info@redcircle.biz,121 Noriega St,San Francisco,CA,94122,(415) 661-4771,Building Contractors-Commercial & Industrial,Building Contractors,General Contractors,,,,,
Wilcox Construction,Wilcox Construction,info@redcircle.biz,1722 8th Ave,San Francisco,CA,94122,(415) 661-5500,Building Contractors-Commercial & Industrial,General Contractors,Home Builders,,,,,
Riley Construction Inc 2,Riley Construction Inc 2,info@redcircle.biz,1622 Funston Ave,San Francisco,CA,94122,(415) 566-7885,Building Contractors-Commercial & Industrial,General Contractors,Real Estate Developers,,,,,
M Squared Construction,M Squared Construction,info@redcircle.biz,1278 20th Ave,San Francisco,CA,94122,(415) 661-6976,Building Contractors-Commercial & Industrial,General Contractors,Utility Contractors,,,,,
Peter Balla Construction,Peter Balla Construction,info@redcircle.biz,1352 10th Ave,San Francisco,CA,94122,(415) 595-7068,Building Contractors-Commercial & Industrial,Kitchen Planning & Remodeling Service,Building Contractors,BBB Rating: A+,,,,
P3 Construction & Remodel,P3 Construction & Remodel,info@redcircle.biz,919 Irving St,San Francisco,CA,94122,(415) 829-7365,Building Contractors-Commercial & Industrial,Home Builders,Home Improvements,,,,,
Guinnane Construction,Guinnane Construction,info@redcircle.biz,1201 14th Ave,San Francisco,CA,94122,(415) 731-1790,Building Contractors-Commercial & Industrial,Construction Estimates,Home Builders,,,,,
Abj Construction,Abj Construction,info@redcircle.biz,1769 11th Ave,San Francisco,CA,94122,(415) 340-3352,Building Contractors-Commercial & Industrial,Home Builders,General Contractors,,,,,
Leix Construction,Leix Construction,info@redcircle.biz,1608 Irving St,San Francisco,CA,94122,(415) 753-5547,Building Contractors-Commercial & Industrial,Home Builders,General Contractors,,,,,
"Hammerhouse Construction, Inc.","Hammerhouse Construction, Inc.",info@redcircle.biz,1250 Kirkham St,San Francisco,CA,94122,(415) 516-2690,Building Contractors-Commercial & Industrial,General Contractors,Real Estate Developers,,,,,
Aero Construction,Aero Construction,info@redcircle.biz,1315 23rd Ave,San Francisco,CA,94122,(415) 340-3385,Building Contractors-Commercial & Industrial,General Contractors,Real Estate Developers,,,,,
Sfg Construction,Sfg Construction,info@redcircle.biz,1758 30th Ave,San Francisco,CA,94122,(415) 759-0129,Building Contractors-Commercial & Industrial,Home Builders,General Contractors,,,,,
Advanced Design,Advanced Design,info@redcircle.biz,3922 Kirkham St,San Francisco,CA,94122,(415) 759-6962,Building Contractors-Commercial & Industrial,General Contractors,Building Contractors,,,,,
Le Flor Janitorial,Le Flor Janitorial,info@redcircle.biz,189 Magnolia St,San Francisco,CA,94123,(415) 440-2447,Building Contractors-Commercial & Industrial,Janitorial Service,Power Washing,BBB Rating: A+,,,,
Ginger Bread Builders,Ginger Bread Builders,info@redcircle.biz,1775 Union St,San Francisco,CA,94123,(415) 796-2456,Building Contractors-Commercial & Industrial,General Contractors,Real Estate Developers,,,,,
Larkspur Builders,Larkspur Builders,info@redcircle.biz,1686 Union St Ste 211,San Francisco,CA,94123,(415) 760-2123,Building Contractors-Commercial & Industrial,General Contractors,Altering & Remodeling Contractors,BBB Rating: A,,,,
Ebw Builders Inc,Ebw Builders Inc,info@redcircle.biz,2860 Laguna St,San Francisco,CA,94123,(415) 567-9900,Building Contractors-Commercial & Industrial,Home Builders,Altering & Remodeling Contractors,,,,,
Cook Construction,Cook Construction,info@redcircle.biz,2314 Filbert St,San Francisco,CA,94123,(415) 308-8151,Building Contractors-Commercial & Industrial,Construction Management,Home Builders,,,,,
Adamas Builders,Adamas Builders,info@redcircle.biz,3210 Fillmore St,San Francisco,CA,94123,(415) 792-6507,Building Contractors-Commercial & Industrial,General Contractors,Home Builders,,,,,
Cello Maudru Construction Inc,Cello Maudru Construction Inc,info@redcircle.biz,2626 Filbert St,San Francisco,CA,94123,(415) 829-7571,Building Contractors-Commercial & Industrial,General Contractors,Real Estate Developers,,,,,
Kevin Webb Construction,Kevin Webb Construction,info@redcircle.biz,3298 Pierce St,San Francisco,CA,94123,(415) 474-9905,Building Contractors-Commercial & Industrial,General Contractors,Real Estate Developers,,,,,
Bay Area Mechanical and Enginnering Inc.,Bay Area Mechanical and Enginnering Inc.,info@redcircle.biz,148 Mendell St,San Francisco,CA,94124,(415) 822-1516,Building Contractors-Commercial & Industrial,Heating Equipment & Systems,"Automatic Fire Sprinklers-Residential, Commercial & Industrial",,,,,
ACE Plumbing And Rooter,ACE Plumbing And Rooter,info@redcircle.biz,2200 Jerrold Ave,San Francisco,CA,94124,(415) 822-6333,Building Contractors-Commercial & Industrial,Building Contractors,Plumbing-Drain & Sewer Cleaning,,,,,
Stars Awning Company Inc.,Stars Awning Company Inc.,info@redcircle.biz,1068 Shafter Ave,San Francisco,CA,94124,(415) 822-8206,Building Contractors-Commercial & Industrial,Awnings & Canopies,Awnings & Canopies-Repair & Service,,,,,
Stenson-Pacific Elevator Co,Stenson-Pacific Elevator Co,info@redcircle.biz,676 Toland Pl,San Francisco,CA,94124,(415) 826-2050,Building Contractors-Commercial & Industrial,Elevator Repair,Elevators,,,,,
Bayview Hunters Point Builders Exchange,Bayview Hunters Point Builders Exchange,info@redcircle.biz,3450 3rd St Ste 4a,San Francisco,CA,94124,(415) 824-2907,Building Contractors-Commercial & Industrial,,,,,,,
Cahill Contractors,Cahill Contractors,info@redcircle.biz,780 Kirkwood Ave,San Francisco,CA,94124,(415) 374-7350,Building Contractors-Commercial & Industrial,Home Builders,,,,,,
Clossey Tom Builder,Clossey Tom Builder,info@redcircle.biz,909 Palou Ave,San Francisco,CA,94124,(415) 374-7082,Building Contractors-Commercial & Industrial,Real Estate Developers,,,,,,
Cahill Contractors,Cahill Contractors,info@redcircle.biz,350 Friedell St,San Francisco,CA,94124,(415) 800-8529,Building Contractors-Commercial & Industrial,Home Builders,,,,,,
Herrero Builders Incorporated,Herrero Builders Incorporated,info@redcircle.biz,2100 Oakdale Ave,San Francisco,CA,94124,(415) 824-7675,Building Contractors-Commercial & Industrial,General Contractors,Building Construction Consultants,BBB Rating: A+,,,,
Plant Construction Company,Plant Construction Company,info@redcircle.biz,300 Newhall St,San Francisco,CA,94124,(415) 285-0500,Building Contractors-Commercial & Industrial,Home Builders,Building Contractors,BBB Rating: A+,,,,
Lindquist Custom Construction,Lindquist Custom Construction,info@redcircle.biz,2200 Jerrold Ave,San Francisco,CA,94124,(415) 647-7455,Building Contractors-Commercial & Industrial,General Contractors,Home Builders,,,,,
Firth Construction,Firth Construction,info@redcircle.biz,80 Apparel Way,San Francisco,CA,94124,(415) 647-1128,Building Contractors-Commercial & Industrial,Home Builders,General Contractors,,,,,
Pegasus Builders,Pegasus Builders,info@redcircle.biz,55 Dorman Ave,San Francisco,CA,94124,(415) 400-5423,Building Contractors-Commercial & Industrial,General Contractors,Real Estate Developers,,,,,
Iturralde Construction,Iturralde Construction,info@redcircle.biz,40 Topeka Ave,San Francisco,CA,94124,(415) 637-6940,Building Contractors-Commercial & Industrial,General Contractors,Kitchen Planning & Remodeling Service,,,,,
Collier Ostrom Inc,Collier Ostrom Inc,info@redcircle.biz,1395 Fairfax Ave,San Francisco,CA,94124,(415) 206-0803,Building Contractors-Commercial & Industrial,General Contractors,Altering & Remodeling Contractors,BBB Rating: A+,,,,
Turner Group Construction,Turner Group Construction,info@redcircle.biz,1485 Bay Shore Blvd Ste 320d,San Francisco,CA,94124,(415) 656-0400,Building Contractors-Commercial & Industrial,General Contractors,Construction Management,,,,,
Hing Wah Construction,Hing Wah Construction,info@redcircle.biz,1485 Bay Shore Blvd,San Francisco,CA,94124,(415) 715-8640,Building Contractors-Commercial & Industrial,General Contractors,Home Builders,,,,,
R & D Construction,R & D Construction,info@redcircle.biz,1485 Bay Shore Blvd,San Francisco,CA,94124,(415) 347-7884,Building Contractors-Commercial & Industrial,Home Builders,General Contractors,,,,,
Cazadoro Construction Inc,Cazadoro Construction Inc,info@redcircle.biz,1485 Bay Shore Blvd,San Francisco,CA,94124,(415) 466-6093,Building Contractors-Commercial & Industrial,General Contractors,Home Builders,,,,,
Acorn Construction,Acorn Construction,info@redcircle.biz,1775 Egbert Ave,San Francisco,CA,94124,(415) 467-8888,Building Contractors-Commercial & Industrial,Building Contractors,Altering & Remodeling Contractors,,,,,
Bannon Construction Inc,Bannon Construction Inc,info@redcircle.biz,845 Hudson Ave,San Francisco,CA,94124,(415) 642-4074,Building Contractors-Commercial & Industrial,General Contractors,Real Estate Developers,,,,,
Nation's Roofing Company,Nation's Roofing Company,info@redcircle.biz,1160 Quesada Ave,San Francisco,CA,94124,(415) 731-8181,Building Contractors-Commercial & Industrial,Shingles,Roofing Contractors,BBB Rating: A+,,,,
Gonzalez Concrete,Gonzalez Concrete,info@redcircle.biz,1160 Revere Ave,San Francisco,CA,94124,(415) 822-8384,Building Contractors-Commercial & Industrial,Concrete Contractors,Driveway Contractors,BBB Rating: A+,,,,
Berkel and Company Contractors,Berkel and Company Contractors,info@redcircle.biz,1145 Revere Ave,San Francisco,CA,94124,(415) 525-4051,Building Contractors-Commercial & Industrial,General Contractors,Concrete Contractors,,,,,
Bay Area Mechanical & Enginnering Inc.,Bay Area Mechanical & Enginnering Inc.,info@redcircle.biz,1415 Donner Ave,San Francisco,CA,94124,(415) 822-1516,Building Contractors-Commercial & Industrial,Boiler Repair & Cleaning,Plumbers,,,,,
KC Construction,KC Construction,info@redcircle.biz,1100 Thomas Ave,San Francisco,CA,94124,(415) 822-8904,Building Contractors-Commercial & Industrial,General Contractors,Home Builders,,,,,
Trinet Construction Inc,Trinet Construction Inc,info@redcircle.biz,2560 Marin St,San Francisco,CA,94124,(415) 695-7814,Building Contractors-Commercial & Industrial,General Contractors,,,,,,
Admond Construction Inc,Admond Construction Inc,info@redcircle.biz,1800 Cesar Chavez,San Francisco,CA,94124,(415) 282-7998,Building Contractors-Commercial & Industrial,Building Contractors,Real Estate Developers,,,,,
Ireland Interior Systems Inc,Ireland Interior Systems Inc,info@redcircle.biz,235 Bay Shore Blvd,San Francisco,CA,94124,(415) 671-2903,Building Contractors-Commercial & Industrial,"Ceilings-Supplies, Repair & Installation",,,,,,
Hois Construction,Hois Construction,info@redcircle.biz,2246 Jerrold Ave Ste 6,San Francisco,CA,94124,(415) 416-6141,Building Contractors-Commercial & Industrial,Construction Management,Home Builders,,,,,
Mission Constructors Inc.,Mission Constructors Inc.,info@redcircle.biz,2177 Jerrold Ave Ste 202,San Francisco,CA,94124,(415) 282-8453,Building Contractors-Commercial & Industrial,General Contractors,Building Contractors,BBB Rating: A+,,,,
Shanta Design Build,Shanta Design Build,info@redcircle.biz,87 Loomis St,San Francisco,CA,94124,(415) 821-4091,Building Contractors-Commercial & Industrial,General Contractors,Home Builders,BBB Rating: A+,,,,
CBS Construction Inc,CBS Construction Inc,info@redcircle.biz,2198 Oakdale Ave,San Francisco,CA,94124,(415) 678-5357,Building Contractors-Commercial & Industrial,General Contractors,Building Construction Consultants,,,,,
Moore RJ Construction,Moore RJ Construction,info@redcircle.biz,1559 Custer Ave,San Francisco,CA,94124,(415) 206-9100,Building Contractors-Commercial & Industrial,Building Contractors,Real Estate Developers,,,,,
Malpas & Birmingham Inc,Malpas & Birmingham Inc,info@redcircle.biz,70 Dorman Ave,San Francisco,CA,94124,(415) 285-8508,Building Contractors-Commercial & Industrial,General Contractors,Building Contractors,,,,,
P & J Utility Company,P & J Utility Company,info@redcircle.biz,41 Dorman Ave Ste 1,San Francisco,CA,94124,(415) 284-0307,Building Contractors-Commercial & Industrial,Building Contractors,Altering & Remodeling Contractors,,,,,
Denning Cabinetry,Denning Cabinetry,info@redcircle.biz,25 Dorman Ave,San Francisco,CA,94124,(415) 285-1311,Building Contractors-Commercial & Industrial,Cabinet Makers,Cabinets,BBB Rating: A+,,,,
RC Wilson Construction,RC Wilson Construction,info@redcircle.biz,131 Quint St,San Francisco,CA,94124,(415) 282-4200,Building Contractors-Commercial & Industrial,Home Builders,Real Estate Developers,,,,,
Aaron Gordon Construction Inc,Aaron Gordon Construction Inc,info@redcircle.biz,2261 Shafter Ave,San Francisco,CA,94124,(415) 742-4900,Building Contractors-Commercial & Industrial,Building Contractors,Home Builders,,,,,
Rubecon Builders,Rubecon Builders,info@redcircle.biz,3450 3rd St Ste 1b,San Francisco,CA,94124,(415) 206-7740,Building Contractors-Commercial & Industrial,General Contractors,Building Contractors,,,,,
CMC Construction,CMC Construction,info@redcircle.biz,3450 3rd St Ste 3g,San Francisco,CA,94124,(415) 206-1700,Building Contractors-Commercial & Industrial,General Contractors,Construction Consultants,,,,,
Dajani Construction,Dajani Construction,info@redcircle.biz,1555 Burke Ave,San Francisco,CA,94124,(415) 822-3091,Building Contractors-Commercial & Industrial,Home Builders,General Contractors,,,,,
R & S Construction Management,R & S Construction Management,info@redcircle.biz,1555 Burke Ave,San Francisco,CA,94124,(415) 872-9935,Building Contractors-Commercial & Industrial,Construction Management,General Contractors,,,,,
Cal State Constructors,Cal State Constructors,info@redcircle.biz,1700 Jerrold Ave,San Francisco,CA,94124,(415) 647-7791,Building Contractors-Commercial & Industrial,General Contractors,Construction Management,,,,,
Michael Heavey Construction,Michael Heavey Construction,info@redcircle.biz,4342 3rd St,San Francisco,CA,94124,(415) 822-4300,Building Contractors-Commercial & Industrial,Home Builders,Concrete Contractors,,,,,
L Cabral Construction,L Cabral Construction,info@redcircle.biz,1355 Fairfax Ave,San Francisco,CA,94124,(415) 401-8954,Building Contractors-Commercial & Industrial,Construction Consultants,Construction Management,,,,,
Avalon Construction,Avalon Construction,info@redcircle.biz,5165 3rd St,San Francisco,CA,94124,(415) 822-0822,Building Contractors-Commercial & Industrial,Construction Consultants,General Contractors,,,,,
"Abbeyside Construction, Inc.","Abbeyside Construction, Inc.",info@redcircle.biz,1485 Bay Shore Blvd Ste 130,San Francisco,CA,94124,(415) 656-0300,Building Contractors-Commercial & Industrial,Construction Estimates,General Contractors,BBB Rating: A+,,,,
Eagle Environmental Construction Inc,Eagle Environmental Construction Inc,info@redcircle.biz,1485 Bay Shore Blvd Ste 148,San Francisco,CA,94124,(415) 715-1450,Building Contractors-Commercial & Industrial,General Contractors,Construction Management,BBB Rating: A+,,,,
Springline Inc,Springline Inc,info@redcircle.biz,1485 Bay Shore Blvd Ste 120,San Francisco,CA,94124,(415) 859-5904,Building Contractors-Commercial & Industrial,General Contractors,Building Contractors,,,,,
Georgiun Construction,Georgiun Construction,info@redcircle.biz,1789 Egbert Ave,San Francisco,CA,94124,(415) 467-7510,Building Contractors-Commercial & Industrial,Home Builders,Plumbers,,,,,
Skyline Construction,Skyline Construction,info@redcircle.biz,200 Paul Ave,San Francisco,CA,94124,(415) 330-1050,Building Contractors-Commercial & Industrial,Home Builders,Building Contractors,,,,,
Cannon Constructors,Cannon Constructors,info@redcircle.biz,5800 3rd St,San Francisco,CA,94124,(415) 817-1846,Building Contractors-Commercial & Industrial,General Contractors,Building Construction Consultants,,,,,
Troosh Construction,Troosh Construction,info@redcircle.biz,1555 Yosemite Ave,San Francisco,CA,94124,(415) 822-2144,Building Contractors-Commercial & Industrial,General Contractors,Altering & Remodeling Contractors,BBB Rating: A+,,,,
Saturn Construction,Saturn Construction,info@redcircle.biz,1555 Yosemite Ave,San Francisco,CA,94124,(415) 822-8333,Building Contractors-Commercial & Industrial,General Contractors,Construction Management,BBB Rating: A+,,,,
TLK Steel Inc,TLK Steel Inc,info@redcircle.biz,1300 Van Dyke Ave,San Francisco,CA,94124,(415) 822-2198,Building Contractors-Commercial & Industrial,General Contractors,Building Contractors,,,,,
Mr. Patch Roofing and Maintenance,Mr. Patch Roofing and Maintenance,info@redcircle.biz,1265 Shafter Ave,San Francisco,CA,94124,(415) 822-0767,Building Contractors-Commercial & Industrial,Roofing Contractors,Gutters & Downspouts,,,,,
Highland Construction Co,Highland Construction Co,info@redcircle.biz,1250 Thomas Ave,San Francisco,CA,94124,(415) 822-5900,Building Contractors-Commercial & Industrial,Roofing Contractors,Home Builders,BBB Rating: A+,,,,
Tlk Steel Inc,Tlk Steel Inc,info@redcircle.biz,1212 Thomas Ave,San Francisco,CA,94124,(415) 822-2391,Building Contractors-Commercial & Industrial,General Contractors,,,,,,
Michael Heavey Construction,Michael Heavey Construction,info@redcircle.biz,2225 Ingalls St,San Francisco,CA,94124,(415) 822-4300,Building Contractors-Commercial & Industrial,Home Builders,Concrete Contractors,,,,,
C M Construction,C M Construction,info@redcircle.biz,2727 Jennings St,San Francisco,CA,94124,(415) 822-6088,Building Contractors-Commercial & Industrial,General Contractors,Altering & Remodeling Contractors,BBB Rating: A+,,,,
Seafront,Seafront,info@redcircle.biz,800 Innes Ave,San Francisco,CA,94124,(415) 550-8426,Building Contractors-Commercial & Industrial,General Contractors,,,,,,
Apollo Construction Co,Apollo Construction Co,info@redcircle.biz,1127 Shafter Ave,San Francisco,CA,94124,(415) 671-2008,Building Contractors-Commercial & Industrial,Home Builders,Construction Management,BBB Rating: A+,,,,
Seddon Construction Company,Seddon Construction Company,info@redcircle.biz,947 Palou Ave,San Francisco,CA,94124,(415) 643-4800,Building Contractors-Commercial & Industrial,General Contractors,Real Estate Developers,BBB Rating: A+,,,,
Candlestick Contractors,Candlestick Contractors,info@redcircle.biz,700 Gilman Ave,San Francisco,CA,94124,(415) 872-9015,Building Contractors-Commercial & Industrial,General Contractors,Home Builders,,,,,
LG Custom Builders,LG Custom Builders,info@redcircle.biz,58 W Portal Ave,San Francisco,CA,94127,(415) 287-6683,Building Contractors-Commercial & Industrial,Altering & Remodeling Contractors,General Contractors,BBB Rating: A+,,,,
O'Donnell James,O'Donnell James,info@redcircle.biz,163 Molimo Dr,San Francisco,CA,94127,(415) 584-3240,Building Contractors-Commercial & Industrial,,,,,,,
Art General Roofing,Art General Roofing,info@redcircle.biz,360 Moncada Way,San Francisco,CA,94127,(415) 929-9494,Building Contractors-Commercial & Industrial,Roofing Contractors,Skylights,,,,,
Commins Construction,Commins Construction,info@redcircle.biz,835 Urbano Dr,San Francisco,CA,94127,(415) 239-1353,Building Contractors-Commercial & Industrial,Kitchen Planning & Remodeling Service,Altering & Remodeling Contractors,BBB Rating: A+,,,,
Kevin Sullivan Construction,Kevin Sullivan Construction,info@redcircle.biz,140 Chaves Ave,San Francisco,CA,94127,(415) 759-9655,Building Contractors-Commercial & Industrial,General Contractors,Home Builders,BBB Rating: A+,,,,
Sotac Construction Company,Sotac Construction Company,info@redcircle.biz,425B Monterey Blvd,San Francisco,CA,94127,(415) 587-7422,Building Contractors-Commercial & Industrial,Home Builders,Construction Consultants,,,,,
Brendodn Quinland Construction,Brendodn Quinland Construction,info@redcircle.biz,63 Wawona St,San Francisco,CA,94127,(415) 504-7811,Building Contractors-Commercial & Industrial,Home Builders,Real Estate Developers,,,,,
Skycore Construction,Skycore Construction,info@redcircle.biz,236 W Portal Ave # 125,San Francisco,CA,94127,(415) 333-4211,Building Contractors-Commercial & Industrial,General Contractors,Altering & Remodeling Contractors,,,,,
Gar Construction Management,Gar Construction Management,info@redcircle.biz,285 San Anselmo Ave,San Francisco,CA,94127,(415) 571-8713,Building Contractors-Commercial & Industrial,Construction Management,Home Builders,,,,,
Macken Construction,Macken Construction,info@redcircle.biz,198 El Verano Way,San Francisco,CA,94127,(415) 334-7492,Building Contractors-Commercial & Industrial,Home Builders,Building Contractors,,,,,
for to DO,for to DO,info@redcircle.biz,2367 Ocean Ave,San Francisco,CA,94127,(415) 282-1601,Building Contractors-Commercial & Industrial,Tennis Court Construction,Home Builders,,,,,
Tricrop Construction,Tricrop Construction,info@redcircle.biz,1504 Pershing Dr,San Francisco,CA,94129,(415) 379-4360,Building Contractors-Commercial & Industrial,General Contractors,Home Builders,,,,,
Cahill Contractors,Cahill Contractors,info@redcircle.biz,301 Macalla Ct,San Francisco,CA,94130,(415) 525-3542,Building Contractors-Commercial & Industrial,Home Builders,,,,,,
Golden State Bridge Inc,Golden State Bridge Inc,info@redcircle.biz,1 Avenue Of The Palms Ave,San Francisco,CA,94130,(415) 796-2678,Building Contractors-Commercial & Industrial,,,,,,,
Yerba Buena Builders Inc,Yerba Buena Builders Inc,info@redcircle.biz,725 California Ave,San Francisco,CA,94130,(415) 861-4269,Building Contractors-Commercial & Industrial,General Contractors,Home Builders,,,,,
Dannys Construction Company,Dannys Construction Company,info@redcircle.biz,1 Avenue Of The Palms Ave Ste 156,San Francisco,CA,94130,(415) 772-1991,Building Contractors-Commercial & Industrial,Construction Management,Home Builders,,,,,
Salimi Construction Management,Salimi Construction Management,info@redcircle.biz,1 Avenue Of The Palms Ave,San Francisco,CA,94130,(415) 829-3969,Building Contractors-Commercial & Industrial,Construction Management,General Contractors,,,,,
Rcj & Assoc,Rcj & Assoc,info@redcircle.biz,51 Macalla Rd,San Francisco,CA,94130,(415) 529-1087,Building Contractors-Commercial & Industrial,General Contractors,Building Contractors,,,,,
Wallace Remodeling Inc,Wallace Remodeling Inc,info@redcircle.biz,400 Day St,San Francisco,CA,94131,(415) 550-1993,Building Contractors-Commercial & Industrial,Home Improvements,Altering & Remodeling Contractors,BBB Rating: A+,,,,
Calplumbing Co,Calplumbing Co,info@redcircle.biz,5262 Diamond Heights Blvd,San Francisco,CA,94131,(415) 221-4633,Building Contractors-Commercial & Industrial,Home Improvements,Sewer Cleaners & Repairers,,,,,
Galagher Construction,Galagher Construction,info@redcircle.biz,525 27th St,San Francisco,CA,94131,(415) 824-4173,Building Contractors-Commercial & Industrial,Building Contractors,,,,,,
Patten Construction,Patten Construction,info@redcircle.biz,1477 Sanchez St,San Francisco,CA,94131,(415) 269-6235,Building Contractors-Commercial & Industrial,Building Contractors,Altering & Remodeling Contractors,,,,,
Halperin Construction Co,Halperin Construction Co,info@redcircle.biz,318 28th St,San Francisco,CA,94131,(415) 826-1778,Building Contractors-Commercial & Industrial,Building Contractors,Home Builders,,,,,
Pete Moffat Construction,Pete Moffat Construction,info@redcircle.biz,538 28th St,San Francisco,CA,94131,(415) 796-3722,Building Contractors-Commercial & Industrial,Home Builders,General Contractors,,,,,
Joseph & Maria Vaccaro & Co,Joseph & Maria Vaccaro & Co,info@redcircle.biz,507 29th St,San Francisco,CA,94131,(415) 824-3341,Building Contractors-Commercial & Industrial,Concrete Contractors,,,,,,
Bradford Construction,Bradford Construction,info@redcircle.biz,1915 Diamond St,San Francisco,CA,94131,(415) 695-0861,Building Contractors-Commercial & Industrial,Home Builders,General Contractors,,,,,
Cello Maudru Construction,Cello Maudru Construction,info@redcircle.biz,147 Laidley St,San Francisco,CA,94131,(415) 829-3983,Building Contractors-Commercial & Industrial,Home Builders,General Contractors,,,,,
Socal Construction Inc,Socal Construction Inc,info@redcircle.biz,65 Turquoise Way,San Francisco,CA,94131,(415) 824-2962,Building Contractors-Commercial & Industrial,Building Contractors,Real Estate Developers,,,,,
J B Construction,J B Construction,info@redcircle.biz,50 Sussex St,San Francisco,CA,94131,(415) 587-3253,Building Contractors-Commercial & Industrial,Altering & Remodeling Contractors,Building Construction Consultants,,,,,
Yellow Zone Construction Inc,Yellow Zone Construction Inc,info@redcircle.biz,90 Denslowe Dr,San Francisco,CA,94132,(415) 652-4747,Building Contractors-Commercial & Industrial,Building Contractors,Altering & Remodeling Contractors,,,,,
Amoroso Construction,Amoroso Construction,info@redcircle.biz,3500 Great Hwy,San Francisco,CA,94132,(415) 682-7201,Building Contractors-Commercial & Industrial,Construction Consultants,Home Builders,,,,,
One Workplace,One Workplace,info@redcircle.biz,99 Osgood Pl,San Francisco,CA,94133,(415) 296-1066,Building Contractors-Commercial & Industrial,Designers-Industrial & Commercial,,,,,,
Isidore Mahon Construction,Isidore Mahon Construction,info@redcircle.biz,2027 Saint Louis Aly,San Francisco,CA,94133,(415) 869-6131,Building Contractors-Commercial & Industrial,General Contractors,Building Restoration & Preservation,,,,,
NCR Construction,NCR Construction,info@redcircle.biz,1035 Grant Ave,San Francisco,CA,94133,(510) 844-5717,Building Contractors-Commercial & Industrial,Home Builders,,,,,,
Wellbuilt Construction,Wellbuilt Construction,info@redcircle.biz,1750 Taylor St,San Francisco,CA,94133,(415) 800-7660,Building Contractors-Commercial & Industrial,General Contractors,Home Builders,,,,,
Metaform Product Development,Metaform Product Development,info@redcircle.biz,1558 Powell St,San Francisco,CA,94133,(415) 956-1240,Building Contractors-Commercial & Industrial,General Contractors,Architects,,,,,
Mountain Bay Construction,Mountain Bay Construction,info@redcircle.biz,435 Pacific Ave Ste 250,San Francisco,CA,94133,(415) 394-7557,Building Contractors-Commercial & Industrial,General Contractors,Building Contractors,,,,,
Kansai Developement Inc,Kansai Developement Inc,info@redcircle.biz,435 Pacific Ave Fl 2,San Francisco,CA,94133,(415) 394-7555,Building Contractors-Commercial & Industrial,Building Contractors,General Contractors,,,,,
"Hon's Construction, Inc.","Hon's Construction, Inc.",info@redcircle.biz,519 Green St,San Francisco,CA,94133,(415) 810-8286,Building Contractors-Commercial & Industrial,Building Contractors,Altering & Remodeling Contractors,,,,,
Birmingham Builders Inc,Birmingham Builders Inc,info@redcircle.biz,50 Osgood Pl Ste 340,San Francisco,CA,94133,(415) 552-2025,Building Contractors-Commercial & Industrial,Home Builders,Real Estate Developers,,,,,
Stroub Construction Company,Stroub Construction Company,info@redcircle.biz,62 Valparaiso St,San Francisco,CA,94133,(415) 614-9398,Building Contractors-Commercial & Industrial,Home Builders,Construction Management,,,,,
Building Elevator,Building Elevator,info@redcircle.biz,720 Lombard St,San Francisco,CA,94133,(415) 441-1525,Building Contractors-Commercial & Industrial,Building Maintenance,General Contractors,,,,,
Nation Fidelity Construction,Nation Fidelity Construction,info@redcircle.biz,525 Chestnut St,San Francisco,CA,94133,(415) 398-4022,Building Contractors-Commercial & Industrial,Building Contractors,Altering & Remodeling Contractors,,,,,
Niederberger Peter,Niederberger Peter,info@redcircle.biz,2351 Powell St,San Francisco,CA,94133,(415) 956-9103,Building Contractors-Commercial & Industrial,General Contractors,Altering & Remodeling Contractors,,,,,
AMS Construction,AMS Construction,info@redcircle.biz,2660 San Bruno Ave,San Francisco,CA,94134,(415) 654-6624,Building Contractors-Commercial & Industrial,General Contractors,Home Builders,BBB Rating: A,,,,
Skycore Corp.,Skycore Corp.,info@redcircle.biz,261 Gambier St,San Francisco,CA,94134,(415) 333-4211,Building Contractors-Commercial & Industrial,Building Contractors,General Contractors,,,,,
Geniali Construction,Geniali Construction,info@redcircle.biz,98 Wayland St,San Francisco,CA,94134,(415) 468-1515,Building Contractors-Commercial & Industrial,Home Builders,Building Contractors,,,,,
Rubecon Builders Inc.,Rubecon Builders Inc.,info@redcircle.biz,3455 San Bruno Ave,San Francisco,CA,94134,(415) 561-9597,Building Contractors-Commercial & Industrial,Building Construction Consultants,Home Builders,,,,,
Roebuck Construction,Roebuck Construction,info@redcircle.biz,1298 Girard St,San Francisco,CA,94134,(415) 466-6260,Building Contractors-Commercial & Industrial,Construction Estimates,Home Builders,,,,,
Hois Construction Inc,Hois Construction Inc,info@redcircle.biz,451 Raymond Ave,San Francisco,CA,94134,(415) 333-7282,Building Contractors-Commercial & Industrial,General Contractors,Altering & Remodeling Contractors,,,,,
Desilva Gates Construction,Desilva Gates Construction,info@redcircle.biz,150 Executive Park Blvd,San Francisco,CA,94134,(415) 715-2960,Building Contractors-Commercial & Industrial,General Contractors,Home Builders,,,,,
Cal State Constructors,Cal State Constructors,info@redcircle.biz,5 Thomas Mellon Cir,San Francisco,CA,94134,(415) 508-0441,Building Contractors-Commercial & Industrial,General Contractors,Home Builders,,,,,
Avalon Construction Co,Avalon Construction Co,info@redcircle.biz,5 Thomas Mellon Cir Ste 300,San Francisco,CA,94134,(415) 656-1924,Building Contractors-Commercial & Industrial,Construction Management,Home Builders,,,,,
Sypult Construction,Sypult Construction,info@redcircle.biz,513 Parnassus Ave,San Francisco,CA,94143,(415) 753-1030,Building Contractors-Commercial & Industrial,Home Builders,,,,,,
Dome Construction Corporation,Dome Construction Corporation,info@redcircle.biz,1500 Owens St,San Francisco,CA,94158,(415) 864-4150,Building Contractors-Commercial & Industrial,Home Builders,Construction Management,,,,,
Clark Construction,Clark Construction,info@redcircle.biz,1400 6th St,San Francisco,CA,94158,(415) 593-7000,Building Contractors-Commercial & Industrial,Home Builders,Real Estate Developers,,,,,
Geocell Systems Inc,Geocell Systems Inc,info@redcircle.biz,54 Pier Ste 201,San Francisco,CA,94158,(415) 541-5300,Building Contractors-Commercial & Industrial,General Contractors,Building Construction Consultants,,,,,
Mr Plastics,Mr Plastics,info@redcircle.biz,844 Doolittle Dr,San Leandro,CA,94577,(510) 957-3867,Building Contractors-Commercial & Industrial,Plastics-Supply Centers,"Plastics-Vacuum, Pressure & Thermoforming",,,,,
Mr Plastics,Mr Plastics,info@redcircle.biz,844 Doolittle Dr,San Leandro,CA,94577,(510) 394-1465,Building Contractors-Commercial & Industrial,Plastics-Molders,"Plastics-Fabricating, Finishing & Decorating",,,,,
FMK Construction Inc.,FMK Construction Inc.,info@redcircle.biz,1366 Doolittle Dr,San Leandro,CA,94577,(510) 568-2445,Building Contractors-Commercial & Industrial,Building Contractors,Concrete Contractors,,,,,
General Roofing Co.,General Roofing Co.,info@redcircle.biz,3309 Elmwood Ave,Oakland,CA,94601,(510) 761-9610,Building Contractors-Commercial & Industrial,Building Contractors,Roofing Services Consultants,BBB Rating: A+,,,,
Tama Painting Co,Tama Painting Co,info@redcircle.biz,65 N Rancho Pl,El Sobrante,CA,94803,(510) 758-6060,Building Contractors-Commercial & Industrial,Painting Contractors,Waterproofing Contractors,,,,,
Fontana Construction Inc,Fontana Construction Inc,info@redcircle.biz,1945 Francisco Blvd E,San Rafael,CA,94901,(415) 457-1290,Building Contractors-Commercial & Industrial,Construction Management,Construction Consultants,BBB Rating: A+,,,,
Roto-Rooter,Roto-Rooter,info@redcircle.biz,885 Olive Ave Ste D,Novato,CA,94945,(415) 898-2700,Building Contractors-Commercial & Industrial,Sewer Contractors,Building Contractors,,,,,
F P Builders,F P Builders,info@redcircle.biz,401 Bel Marin Keys Blvd Ste F,Novato,CA,94949,(415) 883-9465,Building Contractors-Commercial & Industrial,Building Contractors,Home Repair & Maintenance,BBB Rating: A+,,,,
Sonoma-Marin Construction,Sonoma-Marin Construction,info@redcircle.biz,1077 Lakeville St,Petaluma,CA,94952,(707) 981-4005,Building Contractors-Commercial & Industrial,General Contractors,Concrete Pumping Contractors,,,,,
Wedge Roofing,Wedge Roofing,info@redcircle.biz,5 Casa Grande Rd,Petaluma,CA,94954,(888) 763-7663,Building Contractors-Commercial & Industrial,Building Contractors,Roofing Contractors,,,,,
Metal Roof Systems Inc.,Metal Roof Systems Inc.,info@redcircle.biz,1309 Ross St Ste C,Petaluma,CA,94954,(707) 666-0156,Building Contractors-Commercial & Industrial,Building Construction Consultants,Construction Consultants,,,,,
